country,hours,distance,city,address1,postalCode,latitude,storeId,phoneNumber,name,state,longitude
Mexico,De 07:00:00 a.m. a 10:00:00 p.m.,,Aguascalientes,Av Independencia 2351 (Recolecta en Drive Thru o dentro del Club),20120,21.906479,0000008118,(449) 910-7000,"Sam's Club Aguascalientes, Ags.",Aguascalientes,-102.296984
Mexico,De 08:00:00 a.m. a 10:00:00 p.m.,,Aguascalientes,Av Siglo XXI 3980 (Recolecta dentro del Club),20289,21.842616,0000004985,(449) 918-4016,"Sam's Club Santa Monica, Ags.",Aguascalientes,-102.324517
Mexico,De 09:00:00 a.m. a 09:00:00 p.m.,,Ensenada,Blvd. Reforma Carretera Ensenada La Paz 3976 A (Recolecta dentro del Club),22780,31.844908,0000006261,(646) 177-6292,"Sam's Club Ensenada, B.C.N.",Baja California,-116.604209
Mexico,De 07:00:00 a.m. a 09:00:00 p.m.,,Tijuana ,Insurgentes 18015 (Recolecta dentro del Club),22105,32.495447,0000004982,(664) 625-1541,"Sam's Club Macro Plaza, Tijuana",Baja California,-116.935135
Mexico,De 07:00:00 a.m. a 09:00:00 p.m.,,Mexicali,Blvd. Lázaro Cárdenas 1801 (Recolecta en Drive Thru o dentro del Club),21090,32.623369,0000004728,(686) 561-4973,"Sam's Club Mexicali, B.C.",Baja California,-115.456819
Mexico,De 07:00:00 a.m. a 09:00:00 p.m.,,Tijuana,Blvd. Sánchez Taboada 4005 (Recolecta dentro del Club),22320,32.476723,0000006523,(664) 634-6975,"Sam's Club Tijuana, B.C.",Baja California,-116.996643
Mexico,De 07:00:00 a.m. a 10:00:00 p.m.,,La Paz,Av. Agustín Olachea Esq. Libramiento Sur S/N (Recolecta en Drive Thru o dentro del Club),23080,24.118986,0000004981,(612) 124-2324,"Sam's Club Cola de Ballena, B.C.S.",Baja California Sur,-110.340157
Mexico,De 07:00:00 a.m. a 10:00:00 p.m.,,San Francisco De Campeche,Manzana D Lote 1 Sec. Fundadores (Recolecta dentro del Club),24028,19.849273,0000004832,(981) 811-6925,"Sam's Club Campeche, Cam",Campeche,-90.533953
Mexico,De 07:00:00 a.m. a 10:00:00 p.m.,,Ciudad del Carmen ,Av. Periferico Norte 52 (Recolecta dentro del Club),24118,18.651674,0000004935,(938) 286-1216,"Sam's Club Cd. del Carmen, Cam.",Campeche,-91.81416
Mexico,De 07:00:00 a.m. a 10:00:00 p.m.,,Tuxtla Gutierrez,Blvd. Salomon Gonzalez Blanco Esq. Carretera a Chiapa de Corzo S/N (Recolecta dentro del Club),29040,16.7446228,0000006248,(961) 121-2910,"Sam's Club Albino Corzo, Chis.",Chiapas,-93.0731034
Mexico,De 07:00:00 a.m. a 10:00:00 p.m.,,Comitán de Dominguez,Blvd. De las Federaciones Km 120+ 200 (Recolecta dentro del Club),29002,16.241226,0000004969,(963) 632-9434,"Sam's Club Comitán, Chis",Chiapas,-92.136251
Mexico,De 07:00:00 a.m. a 10:00:00 p.m.,,San Cristóbal de las Casas ,Eje 1 esq. Niño de Atocha S/N (Recolecta dentro del Club),29286,16.7212276,0000004992,(967) 631-7555,"Sam's Club San Cristobal de las casas, Ch",Chiapas,-92.6431453
Mexico,De 07:00:00 a.m. a 10:00:00 p.m.,,Tapachula,Carretera Tapachula km. 35 (Recolecta dentro del Club),30700,14.870645,0000004914,(962) 628-2880,"Sam's Club Tapachula, Chis.",Chiapas,-92.286685
Mexico,De 07:00:00 a.m. a 10:00:00 p.m.,,"Tuxtla Gutiérrez, Chiapas",Blvd. Belisario Domínguez 1550 (Recolecta en Drive Thru o dentro del Club),29020,16.753797,0000006563,(961) 615-7748,"Sam's Club Tuxtla Gutierrez, Chis",Chiapas,-93.149536
Mexico,De 07:00:00 a.m. a 10:00:00 p.m.,,Juarez,Av. Ejercito Nacional 7445 (Recolecta en Drive Thru o dentro del Club),32399,31.70714,0000006584,(656) 629-0907,"Sam's Club Cd. Juárez, Chih.",Chihuahua,-106.423573
Mexico,De 07:00:00 a.m. a 10:00:00 p.m.,,Chihuahua,Periférico de la Juventud 2200 (Recolecta en Drive Thru o dentro del Club),31238,28.636344,0000008240,(614) 429-1300,"Sam's Club Chihuahua, Chih.",Chihuahua,-106.121203
Mexico,De 09:00:00 a.m. a 09:00:00 p.m.,,Cuauhtémoc ,Av. 16 de Septiembre 3600 (Recolecta dentro del Club),31600,28.4055098,0000006234,(614) 581-4214,"Sam's Club Ciudad Cuauhtémoc, Chih.",Chihuahua,-106.8451202
Mexico,De 07:00:00 a.m. a 10:00:00 p.m.,,Delicias,Av. Ferrocarril Oriente 105 (Recolecta dentro del Club),33106,28.1978887,0000006249,(639) 474-6581,"Sam's Club Delicias, Chih.",Chihuahua,-105.4638147
Mexico,De 07:00:00 a.m. a 10:00:00 p.m.,,Hidalgo del Parral,Av. Tecnológico S/N (Recolecta dentro del Club),33800,26.9316786,0000006251,(627) 523-5732,"Sam's Club Hidalgo del Parral, Chih.",Chihuahua,-105.65099
Mexico,De 07:00:00 a.m. a 10:00:00 p.m.,,Chihuahua,Av. Homero 200 (Recolecta dentro del Club),31125,28.705137,0000004999,(614) 142-3292,"Sam's Club Homero, Chih.",Chihuahua,-106.129282
Mexico,De 07:00:00 a.m. a 10:00:00 p.m.,,"Ciudad Juaréz, Chih",Av. de Las Torres 2140  (Recolecta en Drive Thru o dentro del Club),32575,31.621745,0000006313,(656)173-3105,"Sam's Club Los Bravos, Chih.",Chihuahua,-106.393172
Mexico,De 07:00:00 a.m. a 10:00:00 p.m.,,Tlalpan,Calzada Acoxpa 438 (Recolecta en Drive Thru o dentro del Club),14300,19.2972409,0000004910,(55) 5679-3603,"Sam's Club Acoxpa, CDMX",Ciudad de Mexico,-99.1352499
Mexico,De 09:00 a.m. a 09:00 p.m.,,Iztapalapa,Calzada Ignacio Zaragoza 1385 (Recolecta en Drive Thru o dentro del Club),09210,19.3931571,0000006205,(55) 51 15 66 37,"Sam's Club Calzada Zaragoza, CDMX",Ciudad de Mexico,-99.0511572
Mexico,De 07:00:00 a.m. a 10:00:00 p.m.,,Tlalpan,Cañaverales 222 (Recolecta en Drive Thru o dentro del Club),14330,19.294325,0000006285,(55) 5481-9183,"Sam's Club Cuemanco, CDMX",Ciudad de Mexico,-99.106872
Mexico,De 07:00:00 a.m. a 10:00:00 p.m.,,Azcapotzalco,Av. El Rosario 1025 (Recolecta en Drive Thru o dentro del Club),02430,19.5022152,0000004975,(55) 91-27-10-43,"Sam's Club El Rosario, CDMX",Ciudad de Mexico,-99.2032921
Mexico,De 07:00:00 a.m. a 10:00:00 p.m.,,Azcapotzalco,Av. Paseo De Las Jacarandas (Recolecta en Drive Thru o dentro del Club),02970,19.4644028,0000006243,(55) 2631-6443,"Sam's Club La Raza, CDMX",Ciudad de Mexico,-99.1564943
Mexico,De 07:00:00 a.m. a 10:00:00 p.m.,,Álvaro Obregón,Prolongación Paseo de la Reforma (Recolecta en Drive Thru o dentro del Club),01210,19.377399,0000004989,(55) 5292-6609,"Sam's Club Patio Santa Fe, CDMX",Ciudad de Mexico,-99.254136
Mexico,De 07:00:00 a.m. a 10:00:00 p.m.,,Tlalpan,"Arenal 0,Colonia  Sta Ursula Xitla, Delegación Tlalpan (Recolecta en Drive Thru o dentro del Club)",14420,19.28,0000006283,(01) 55 59203457,"Sam's Club Patio Tlalpan, CDMX",Ciudad de Mexico,-99.17
Mexico,De 07:00:00 a.m. a 10:00:00 p.m.,,Iztapalapa,Av. Canal de tezontle 1520 (Recolecta en Drive Thru o dentro del Club),09020,19.383391,0000006394,(55) 5600-9211 ext 101,"Sam's Club Plaza Oriente, CDMX",Ciudad de Mexico,-99.080372
Mexico,De 07:00:00 a.m. a 10:00:00 p.m.,,Miguel Hidalgo,Av. Ejército Nacional 559 (Recolecta en Drive Thru o dentro del Club),11520,19.43867,0000006390,(55) 5545-7299,"Sam's Club Polanco, CDMX",Ciudad de Mexico,-99.192627
Mexico,De 07:00:00 a.m. a 10:00:00 p.m.,,Cuauhtémoc,Lorenzo Butorini S/N Col. Tránsito Del Cuauhtémoc (Recolecta en Drive Thru o dentro del Club),06820,19.419,0000006295,(55) 55,"Sam's Club Portal Centro, CDMX",Ciudad de Mexico,-99.13
Mexico,De 07:00:00 a.m. a 10:00:00 p.m.,,Alvaro Obregón ,Av. Revolución 1267 (Recolecta en Drive Thru o dentro del Club),01010,19.337,0000006290,(55) 21556154,Sam's Club Portal San Angel CDMX,Ciudad de Mexico,-99.185
Mexico,De 07:00:00 a.m. a 10:00:00 p.m.,,Álvaro Obregón,Av. San Jerónimo 630 (Recolecta dentro del Club),01090,19.329266,0000006393,(55) 5568-0681,"Sam's Club San Jerónimo, CDMX",Ciudad de Mexico,-99.210212
Mexico,De 07:00:00 a.m. a 10:00:00 p.m.,,Cuajimalpa ,Av. Tamaulipas 3000 (Recolecta en Drive Thru o dentro del Club),05340,19.35588,0000008124,(55) 5257-9800,"Sam's Club Santa Fe, CDMX",Ciudad de Mexico,-99.276511
Mexico,De 07:00:00 a.m. a 10:00:00 p.m.,,Delg. Gustavo A Madero,Av. Ferrocarril Hidalgo S/N (Recolecta en Drive Thru o dentro del Club),07840,19.470684,0000004901,(55) 5759-8525,"Sam's Club Tepeyac, CDMX",Ciudad de Mexico,-99.116464
Mexico,De 07:00:00 a.m. a 10:00:00 p.m.,,Miguel Hidalgo,Blvd. Manuel Avila Camacho 467 (Recolecta en Drive Thru o dentro del Club),11220,19.4497187,0000006264,(55) 5557-4543,"Sam's Club Toreo, CDMX",Ciudad de Mexico,-99.2178726
Mexico,De 07:00:00 a.m. a 10:00:00 p.m.,,Benito Juarez,Municipio Libre 450 Recolecta en Drive Thru (Sótano del Club),03310,19.369565,0000006224,(55) 5688-8722,Sam's Club Universidad CDMX,Ciudad de Mexico,-99.164206
Mexico,De 09:00:00 a.m. a 09:00:00 p.m.,,Monclova,Blvd. Pape 107 (Recolecta dentro del Club),25720,26.896904,0000006260,(866) 105-2441,"Sam's Club Monclova, Coah.",Coahuila,-101.426602
Mexico,De 09:00:00 a.m. a 09:00:00 p.m.,,Saltillo ,Periferico Luis Echeverria Alvarez No. 1605 (Recolecta dentro del Club),25070,25.390307,0000006305,(844) 111-2373,"Sam's Club Saltillo Sur, Coah.",Coahuila,-100.995147
Mexico,De 07:00:00 a.m. a 10:00:00 p.m.,,Saltillo Coahuila,Av. Nazario Ortiz 841 (Recolecta en Drive Thru o dentro del Club),25290,25.447213,0000004746,(844) 439-1861,"Sam's Club Saltillo, Coah.",Coahuila,-100.972665
Mexico,De 07:00:00 a.m. a 10:00:00 p.m.,,Torreón,Diagonal Reforma 3001 (Recolecta en Drive Thru o dentro del Club),27040,25.544489,0000006470,(871) 732-1101,"Sam's Club Torreón, Coah.",Coahuila,-103.415106
Mexico,De 07:00:00 a.m. a 09:00:00 p.m.,,Colima,Felipe Sevilla del Río 49 (Recolecta dentro del Club),28016,19.255972,0000004913,(312) 323-5172,"Sam's Club Colima, Col.",Colima,-103.715787
Mexico,De 09:00:00 a.m. a 09:00:00 p.m.,,Manzanillo ,Blvd. Miguel de la Madrid 1518 (Recolecta en Drive Thru o dentro del Club),28218,19.0999073,0000006279,(314) 333-8261,"Sam's Club Manzanillo, Col.",Colima,-104.3252599
Mexico,De 07:00:00 a.m. a 10:00:00 p.m.,,Durango ,Av. Felipe Pescador 1401 Ote (Recolecta en Drive Thru o dentro del Club),34000,19.515584,0000006236,(618) 813-9070,"Sam's Club Durango, Dgo.",Durango,-96.92125
Mexico,De 07:00:00 a.m. a 10:00:00 p.m.,,Durango ,Boulevard Durango 102 (Recolecta dentro del Club),34130,24.003611,0000006300,(618) 826-0421,"Sam's Club El Edén, Dgo.",Durango,-104.65117
Mexico,De 07:00:00 a.m. a 10:00:00 p.m.,,Cd. Lerdo,Blvd. Miguel Alemán 1060 (Recolecta en Drive Thru o dentro del Club),35157,25.553825,0000004948,(871) 714-2882,"Sam's Club Villa Jardin, Dgo.",Durango,-103.505427
Mexico,De 07:00:00 a.m. a 10:00:00 p.m.,,Celaya,Prolongación Avenida Irrigación 200 (Recolecta en Drive Thru o dentro del Club),38034,20.536042,0000004977,(461) 611-4846,"Sam's Club Celaya Irrigación, Gto.",Guanajuato,-100.797265
Mexico,De 07:00:00 a.m. a 10:00:00 p.m.,,Irapuato,Av. Paseo Irapuato 1101 (Recolecta en Drive Thru o dentro del Club),36640,20.681996,0000006223,(462) 690-0004,"Sam's Club Irapuato, Gto.",Guanajuato,-101.368661
Mexico,De 07:00:00 a.m. a 11:00:00 p.m.,,León,Blvd. Adolfo López Mateos 3415 (Recolecta dentro del Club),37290,21.101467,0000004877,(477) 711-4505,"Sam's Club León López Mateos, Gto.",Guanajuato,-101.631807
Mexico,De 07:00:00 a.m. a 11:00:00 p.m.,,León,Av. Manuel J. Clouthier 102 (Recolecta en Drive Thru o dentro del Club),37160,21.163197,0000006513,(477) 781-1463,"Sam's Club León, Gto.",Guanajuato,-101.692012
Mexico,De 09:00:00 a.m. a 09:00:00 p.m.,,Salamanca,"Blvd, Faja de Oro 805 (Recolecta dentro del Club)",36747,20.57972,0000006289,(464)-113-0585,"Sam's Club Salamanca, Guanajuato",Guanajuato,-101.206478
MX,De 07:00:00 a.m. a 09:00:00 p.m.,,"San Francisco del Rincón, Gto",Boulevard Niños Héroes  Número 302 Col. Centro CP. 36300 ,36300,21.013932,0000006317,(476) 688-0434,Sam's Club San Francisco del Rincon,Guanajuato,-101.862289
Mexico,De 07:00:00 a.m. a 10:00:00 p.m.,,Acapulco De Juarez,Blvd. de las Naciones 802 (Recolecta en Drive Thru o dentro del Club),39887,16.797803,0000004949,(744) 466-2549,"Sam's Club Acapulco Diamante, Gro.",Guerrero,-99.81122
Mexico,De 07:00:00 a.m. a 10:00:00 p.m.,,Acapulco De Juarez,Avenida Farallón 516 (Recolecta en Drive Thru o dentro del Club),39690,16.865057,0000008127,(744) 487-6090,"Sam's Club Acapulco, Gro.",Guerrero,-99.869864
Mexico,De 07:00:00 a.m. a 10:00:00 p.m.,,Chilpancingo De Los Bravo,Fernando Rios Neri 2 (Recolecta en Drive Thru o dentro del Club),39075,28.63139,0000004937,(747) 116-0011,"Sam's Club Chilpancingo, Gro.",Guerrero,-106.07264
Mexico,De 07:00:00 a.m. a 10:00:00 p.m.,,Iguala,Periférico Sur S/N (Recolecta dentro del Club),40070,18.3360067,0000006221,(733) 332-9770,"Sam's Club Iguala, Gro.",Guerrero,-99.5411539
Mexico,De 07:00:00 a.m. a 09:00:00 p.m.,,Zihuatanejo de Azueta ,Paseo de Zihuatanejo Oriente 15 (Recolecta dentro del Club),40880,17.651,0000006252,(755) 554-3618,"Sam's Club Zihuatanejo, Gro",Guerrero,-101.545
Mexico,De 07:00:00 a.m. a 10:00:00 p.m.,,Pachuca De Soto,Blvd. Felipe Ángeles Km. 87.8 (Recolecta dentro del Club),42084,20.090052,0000006265,(771) 711-4124,"Sam's Club Pachuca Zona Plateada, Hgo.",Hidalgo,-98.773699
Mexico,De 07:00:00 a.m. a 10:00:00 p.m.,,Pachuca,Av. Río de las Avenidas 701 (Recolecta en Drive Thru o dentro del Club),42098,20.113578,0000006534,(771) 713-0921,"Sam's Club Pachuca, Hgo.",Hidalgo,-98.741003
Mexico,De 07:00:00 a.m. a 09:00:00 p.m.,,Tulancingo de Bravo Hidalgo,Blvd. Miguel Hidalgo 901 (Recolecta en Drive Thru o dentro del Club),43660,20.076545,0000004946,(775) 112-1089,"Sam's Club Tulancingo, Hgo.",Hidalgo,-98.38075
Mexico,De 09:00:00 a.m. a 10:00:00 p.m.,,Zapotlan El Grande,Av. Gob. Alberto Cardenas Jimenez (Recolecta dentro del Club),49000,19.68337,0000006307,(341) 413-8449,"Sam's Club Ciudad Gúzman, Jal.",Jalisco,-103.473936
Mexico,De 07:00:00 a.m. a 10:00:00 p.m.,,Guadalajara ,Dr. R Michel 1003 (Recolecta dentro del Club),44430,20.649692,0000006254,(33) 3650-5063,"Sam's Club González Gallo, Gdl.",Jalisco,-103.340138
Mexico,De 07:00:00 a.m. a 10:00:00 p.m.,,Guadalajara,Anillo Periferico Norte Manuel Gómez Morín #120 (Recolecta en Drive Thru o dentro del Club),44250,20.7222704,0000006219,(33) 3168-8706,"Sam's Club Independencia, Gdl.",Jalisco,-103.3183479
Mexico,De 07:00:00 a.m. a 10:00:00 p.m.,,Zapopan,Av.Vallarta 5455 (Recolecta en Drive Thru o dentro del Club),45100,20.680269,0000006395,(33) 362-98117,"Sam's Club La Estancia, Gdl.",Jalisco,-103.432428
Mexico,De 07:00:00 a.m. a 10:00:00 p.m.,,Zapopan,Av. Mariano Otero 3450 (Recolecta en Drive Thru o dentro del Club),45050,20.642784,0000006469,(33) 3634-8842,"Sam's Club Mariano Otero, Gdl.",Jalisco,-103.41568
Mexico,De 07:00:00 a.m. a 10:00:00 p.m.,,Tlajomulco de Zuñiga,Carretera Guadalajara - Morelia 1501 (Recolecta en Drive Thru o dentro del Club),45645,20.587,0000004944,(33) 3612-7414,"Sam's Club Palomar, Gdl.",Jalisco,-103.443
Mexico,De 07:00:00 a.m. a 10:00:00 p.m.,,Zapopan,Paseo Royal Country 4555 (Recolecta dentro del Club),45116,20.6998913,0000006215,(33) 3617-5206,"Sam's Club Patria, Jal.",Jalisco,-103.4167045
Mexico,De 07:00:00 a.m. a 10:00:00 p.m.,,Tlaquepaque,Anillo Periférico Sur Manuel Gomez Morin S/N (Recolecta en Drive Thru o dentro del Club),45608,20.612159,0000006258,(33) 3855-5014,"Sam's Club Periférico Sur, Gdl.",Jalisco,-103.419328
Mexico,De 07:00:00 a.m. a 10:00:00 p.m.,,Puerto Vallarta,Francisco Medina Ascencio 2880 Recolecta en Drive Thru o dentro del Club),48290,20.658486,0000006237,(322) 225-1565,"Sam's Club Puerto Vallarta, Jal.",Jalisco,-105.240097
Mexico,De 07:00:00 a.m. a 10:00:00 p.m.,,Tlaquepaque,Av. Niños Héroes 720 (Recolecta dentro del Club),45500,20.632458,0000006398,(33) 3657-5706,"Sam's Club Tlaquepaque, Jal.",Jalisco,-103.29258
Mexico,De 07:00:00 a.m. a 10:00:00 p.m.,,Zapopán,Av. Santa Margarita (Recolecta en Drive Thru o dentro del Club),45140,20.730548,0000006296,(33) 3832 -9410,"Sam's Club Valle Real,  Jal.",Jalisco,-103.427003
Mexico,De 07:00:00 a.m. a 10:00:00 p.m.,,Toluca,Blvd. Alfredo del Mazo 608 (Recolecta dentro del Club),50100,19.3061212,0000006225,(722) 237-8661,"Sam's Club Alfredo del Mazo, Méx.",Mexico,-99.6289802
Mexico,De 07:00:00 a.m. a 10:00:00 p.m.,,Nezahualcoyotl,"Av. Bordo de Xochiaca 3, Col. Benito Juárez Nezahualcóyotl Edo. México 57000 (Recolecta en mostrador o Drive thru)",57000,19.425558,0000004954,(55) 5735-5180,"Sam's Club Cd. Jardín, Méx.",Mexico,-99.030461
Mexico,De 07:00:00 a.m. a 10:00:00 p.m.,,Coacalco,Vía José López Portillo 101-E (Recolecta en Drive Thru o dentro del Club),55700,19.637313,0000004805,(55) 1039-0404,"Sam's Club Coacalco, Méx.",Mexico,-99.098954
Mexico,De 07:00:00 a.m. a 09:00:00 p.m.,,Ecatepec De Morelos,Av. Revolución S/N (Recolecta dentro del Club),55000,19.605434,0000006232,(55) 1550-5013,"Sam's Club Ecatepec, Edo. de Mex.",Mexico,-99.046651
Mexico,De 07:00:00 a.m. a 10:00:00 p.m.,,Texcoco,Hidalgo 300 (Recolecta dentro del Club),56120,19.51522,0000004968,(595) 925-0503,"Sam's Club Hiperplaza Texcoco, Méx",Mexico,-98.868477
Mexico,De 07:00:00 a.m. a 10:00:00 p.m.,,Ixtapaluca,Carretera México-Cuautla 3 (Recolecta dentro del Club),56535,19.295869,0000004958,(55) 2596-9110,"Sam's Club Ixtapaluca, Méx.",Mexico,-98.883932
Mexico,De 07:00:00 a.m. a 10:00:00 p.m.,,Cuautitlán Izcalli ,Av. Primero de Mayo 17 (Recolecta en Drive Thru o dentro del Club),54730,19.645472,0000006207,(55) 5868-7246,"Sam's Club Izcalli, Méx.",Mexico,-99.206167
Mexico,De 07:00:00 a.m. a 10:00:00 p.m.,,Huixquilucan,Blvd. Paseo Interlomas 5 (Recolecta en Drive Thru o dentro del Club),52779,19.398672,0000006233,(55) 5247-2808,"Sam's Club Jesus del Monte, Edo. de Mex.",Mexico,-99.288661
Mexico,De 09:00:00 a.m. a 09:00:00 p.m.,,Tlalnepantla de Baz,Lago de Guadalupe  entre Autopista México-Querétaro y Texcatlipoca S/N (Recolecta dentro del Club),54010,19.5787346,0000004961,(55) 5305-4906,"Sam's Club Lago de Guadalupe, Méx.",Mexico,-99.2112315
Mexico,De 07:00:00 a.m. a 10:00:00 p.m.,,Ecatepec de Morelos,Av Central esq. Av. 1 de Mayo S/N (Recolecta dentro del Club),55075,19.580962,0000004934,(55) 2486-4030,"Sam's Club Las Americas, Méx.",Mexico,-99.020476
Mexico,De 07:00:00 a.m. a 10:00:00 p.m.,,Naucalpan,Pase Lomas Verdes S/N (Recolecta dentro del Club),53120,19.516019,0000004879,(55) 5349-3473,"Sam's Club Lomas Verdes, Méx.",Mexico,-99.267558
Mexico,De 07:00:00 a.m. a 10:00:00 p.m.,,Ecatepec de Morelos,Av. Hank Gonzalez 120 (Recolecta dentro del Club),55140,19.5305477,0000006247,,"Sam's Club Multiplaza Aragón, Edo Mex",Mexico,-99.0268993
Mexico,De 09:00 a.m. a 09:00 p.m.,,Nicolás Romero,Blvd. Arturo Montiel Rojas km. 10 (Recolecta dentro del Club),54414,19.628107,0000006282,(55)2201-9262,"Sam's Club Nicolas Romero, Edo de Mex",Mexico,-99.292417
Mexico,De 07:00:00 a.m. a 10:00:00 p.m.,,Cuautitlán Izcalli,Autopista México-Querétaro  Km. 36.5 Lote 1 S/N (Recolecta dentro del Club),54730,19.646109,0000004986,(55) 2239-5019,"Sam's Club Periférico Cuautitlan, Méx.",Mexico,-99.194607
Mexico,De 09:00:00 a.m. a 09:00:00 p.m.,,Tlalnepantla de Baz.,Av. Rio de los Remedios 5 (Recolecta dentro del Club),54180,19.519933,0000006287,(55) 5481-9128,"Sam's Club Río de lo Remedios, Edo. de Me",Mexico,-99.115659
Mexico,De 07:00:00 a.m. a 10:00:00 p.m.,,Cuautitlán ,Carretera Cuautitlan-Tultepec 2 (Recolecta dentro del Club),54850,19.676333,0000004979,(55) 2292-2154,"Sam's Club Santa Elena, Méx.",Mexico,-99.1500235
Mexico,De 07:00:00 a.m. a 10:00:00 p.m.,,Toluca,Carretera Federal Toluca 15 (Recolecta en Drive Thru o dentro del Club),50210,19.3351254,0000006314,722-2102-128,"Sam's Club Santin, Méx.",Mexico,-99.593959
Mexico,De 07:00:00 a.m. a 10:00:00 p.m.,,Tlalnepantla de Baz.,Blvd. Mex-Qro 1900 (Recolecta dentro del Club),54080,19.5257168,0000006391,(55) 5325-0926,"Sam's Club Satélite, Méx.",Mexico,-99.2240202
Mexico,De 07:00:00 a.m. a 10:00:00 p.m.,,Tecamac,Carretera México-Pachuca km 36.5 (Recolecta dentro del Club),55740,19.698829,0000004960,(55) 1383-9707,"Sam's Club Tecámac, Méx",Mexico,-98.980068
Mexico,De 07:00:00 a.m. a 09:00:00 p.m.,,Tlalnepantla de Baz.,Av. Hidalgo S/N Recolecta en Drive Thru o dentro del Club),54030,19.554816,0000004970,(55) 5565-6195,"Sam's Club Toltecas, Méx.",Mexico,-99.192054
Mexico,De 07:00:00 a.m. a 10:00:00 p.m.,,Metepec,Leona Vicario 502 Pte (Recolecta en Drive Thru o dentro del Club),52140,19.260317,0000006497,(722) 279-9929,"Sam's Club Toluca, Méx.",Mexico,-99.622688
Mexico,De 08:00:00 a.m. a 09:00:00 p.m.,,Zumpango,Carretera Zumpango-Los Reyes S/N (Recolecta dentro del Club),55635,20.4913662,0000004984,(591) 918-5958,"Sam's Club Zumpango, Méx.",Mexico,-86.9464445
Mexico,De 09:00:00 a.m. a 09:00:00 p.m.,,La Piedad,Blvd. Lázaro Cárdenas 3001 (Recolecta dentro del Club),59374,20.353801,0000006226,(352) 525-6255,"Sam's Club La Piedad, Mich.",Michoacan de Ocampo,-102.0569801
Mexico,De 09:00 a.m. a 09:00 p.m.,,Lázaro Cardenas,Av.autonomia Lazaro cardenas S/N (Recolecta dentro del Club),60991,17.9774269,0000006244,(753) 531-3610,"Sam's Club Lazaro Cardenas, Mich.",Michoacan de Ocampo,-102.2110355
Mexico,De 09:00 a.m. a 09:00 p.m.,,Morelia ,Periférico Paseo de la República 2150 (Recolecta dentro del Club),58195,19.707736,0000006297,(443) 308-2218,"Sam's Club Morelia Reforma, Morelia",Michoacan de Ocampo,-101.235658
Mexico,De 07:00:00 a.m. a 10:00:00 p.m.,,Morelia ,Av. Enrique Ramírez 420 (Recolecta en Drive Thru o dentro del Club),60991,19.689344,0000006585,(443) 315-0081,"Sam's Club Morelia, Mich.",Michoacan de Ocampo,-101.15947
Mexico,De 07:00:00 a.m. a 09:00:00 p.m.,,Uruapan,Blvd. Industrial 1241 (Recolecta dentro del Club),60120,19.423049,0000004936,(452) 528-8223,"Sam's Club Uruapan, Mich.",Michoacan de Ocampo,-102.037684
Mexico,De 09:00 a.m. a 09:00 p.m.,,Jaconá ,"Calz. Zamora Jacona, Francisco I. Madero 850 (Recolecta dentro del Club)",59813,19.9716547,0000006217,(351) 515-1681,"Sam's Club Zamora Jacona, Mich.",Michoacan de Ocampo,-102.2962761
Mexico,De 07:00:00 a.m. a 09:00:00 p.m.,,Jiutepec ,Blvd. Cuauhnahuac 4 (Recolecta en Drive Thru o dentro del Club),62570,18.9105291,0000004973,(777) 309-1168,"Sam's Club Civac Cuernavaca, Mor.",Morelos,-99.1805577
Mexico,De 07:00:00 a.m. a 11:00:00 p.m.,,Cuautla,Camino Real Tetelcingo Calderón 23 (Recolecta dentro del Club),62751,18.847041,0000004957,(735) 122-2269,"Sam's Club Cuautla, Mor.",Morelos,-98.93697
Mexico,De 07:00:00 a.m. a 11:00:00 p.m.,,Cuernavaca,AV.Vicente Guerrero 760 (Recolecta en Drive Thru o dentro del Club),62270,18.9435989,0000006467,(777) 317-5213,"Sam's Club Cuernavaca, Mor.",Morelos,-99.2282903
Mexico,De 08:00:00 a.m. a 09:00:00 p.m.,,Bahía de Banderas,Carr. Federal 200 Tepic-Puerto Vallarta 1400 (Recolecta dentro del Club),63738,20.712787,0000006240,(322) 187-0723,"Sam's Club Nuevo Vallarta, Nay.",Nayarit,-105.277112
Mexico,De 09:00:00 a.m. a 10:00:00 p.m.,,Tepic,Blvd. Luis Donaldo Colosio S/N Recolecta en Drive Thru o dentro del Club),63175,21.492007,0000004947,(311) 129-1721,"Sam's Club Tepic, Nay.",Nayarit,-104.864759
Mexico,De 07:00:00 a.m. a 10:00:00 p.m.,,Apodaca,"Av. Treviño Elizondo 1005 con Ciprés, Col. Hacienda de Huinalá, CP 66644, Apodaca, Nuevo Léon (Recolecta en Drive Thru o dentro del Club)",66601,25.746,0000006320,(81) 1356-8272,Sam's Club Camino Huinala,Nuevo Leon,-100.183
Mexico,De 07:00:00 a.m. a 10:00:00 p.m.,,Guadalupe,Av. Pablo Livas 2050 (Recolecta dentro del Club),67170,25.665666,0000004991,(81) 8323-6641,"Sam's Club Cerro de la silla, Mty.",Nuevo Leon,-100.244021
Mexico,De 09:00 a.m. a 09:00 p.m.,,Monterrey ,Av paseo de los leones (Recolecta en Drive Thru o dentro del Club),64349,25.727,0000006229,(81) 1095-2916,"Sam's Club Cumbres, Mty",Nuevo Leon,-100.393
Mexico,De 09:00:00 a.m. a 09:00:00 p.m.,,San Pedro Garza Garcia,Av. Manuel Gómez Morín 940 (Recolecta dentro del Club),66250,25.6450325,0000004978,(81) 8356-6636,"Sam's Club Gomez Morin, N.L.",Nuevo Leon,-100.3599197
Mexico,De 07:00:00 a.m. a 10:00:00 p.m.,,Monterrey,Av. J.E.González 400 (Recolecta en Drive Thru o dentro del Club),64320,25.708826,0000006392,(81) 8318-0406,"Sam's Club Gonzalitos, Mty.",Nuevo Leon,-100.351685
Mexico,De 07:00:00 a.m. a 10:00:00 p.m.,,Monterrey,Av. Eugenio Garza Sada 4950 (Recolecta dentro del Club),64780,25.61408,0000006275,(81) 8349-7436,"Sam's Club Las Torres, Mty.",Nuevo Leon,-100.27149
Mexico,De 07:00:00 a.m. a 10:00:00 p.m.,,Guadalupe,Ave. Miguel Aleman 7000 (Recolecta en Drive Thru o dentro del Club),67130,25.695311,0000006468,(81) 8334-6868,"Sam's Club Miguel Alemán, Mty.",Nuevo Leon,-100.237648
Mexico,De 07:00:00 a.m. a 10:00:00 p.m.,,Nuevo Leon,"Av. Coahuila, No 500, Col ExHacienda el Rosario,67288, Nuevo León",67288,25.657,0000005805,(61)-81-12-83-97,"Sam's Club Paseo Juárez, N.L.",Nuevo Leon,-100.151
Mexico,De 07:00:00 a.m. a 10:00:00 p.m.,,San Nicolás de los Garza,Av. Sendero Divisorio 2000 Recolecta en Drive Thru o dentro del Club),66417,25.7669191,0000006204,(81) 1104-8830,"Sam's Club San Nicolas, NL.",Nuevo Leon,-100.294801
Mexico,De 09:00:00 a.m. a 09:00:00 p.m.,,Santa Catarina,Blvd Gustavo Diaz Ordaz (Recolecta dentro del Club),66150,25.673808,0000006293,(81) 8390-6381,"Sam's Club Santa Catarina, Mty.",Nuevo Leon,-100.429083
Mexico,De 07:00:00 a.m. a 09:00:00 p.m.,,San Nicolás de los Garza,Av. Universidad 413 (Recolecta dentro del Club),66450,25.742916,0000004727,(81) 8332-9632,"Sam's Club Universidad, Mty.",Nuevo Leon,-100.302987
Mexico,De 07:00:00 a.m. a 11:00:00 p.m.,,Oaxaca de Juarez,Av. Universidad 601 (Recolecta en Drive Thru o dentro del Club),68130,17.042558,0000006557,(951) 506-0101,"Sam's Club Oaxaca, Oax.",Oaxaca,-96.715294
Mexico,De 08:00:00 a.m. a 10:00:00 p.m.,,Salina Cruz,Carretera Transismica 11 KM  6.5 (Recolecta dentro del Club),70613,16.233084,0000006222,(971)  716-1795,"Sam's Club Salina Cruz, Oax.",Oaxaca,-95.210974
Mexico,De 08:00:00 a.m. a 10:00:00 p.m.,,San Juan Evangelista,Blvd. Benito Juarez 1101 (Recolecta dentro del Club),68370,18.090422,0000006277,(287)-877-9296,"Sam's Club Tuxtepex, Oaxaca",Oaxaca,-96.131037
Mexico,De 09:00:00 a.m. a 10:00:00 p.m.,,Puebla,Avenida 18 de noviembre #1045 esq. Con Albert Einstein col. corredor industrial la Ciénega cp 72220,72220,19.063687,0000006312,0000000000,"Sam's Club Defensores, Pue.",Puebla,-98.162787
Mexico,De 08:00:00 a.m. a 10:00:00 p.m.,,San Pedro Cholula,Boulevard Forjadores de Puebla 3401 (Recolecta dentro del Club),72760,19.076735,0000004988,(222) 329-1288,"Sam's Club Forjadores, Pue.",Puebla,-98.294753
Mexico,De 09:00 a.m. a 09:00 p.m.,,Puebla ,Lateral Sur de Perifrico Ecolgico 701 (Recolecta en Drive Thru o dentro del Club),72490,18.990074,0000006211,(222) 395-3063,"Sam's Club Hospital General, Pue.",Puebla,-98.240283
Mexico,De 00:00:00 a.m. a 11:59:00 p.m.,,Puebla,Blvd. Héroes del 5 de mayo 2322 Recolecta en Drive Thru o dentro del Club),72050,19.069825,0000006263,(222) 220-6565,"Sam's Club Puebla Capu, Pue.",Puebla,-98.194401
Mexico,De 00:00:00 a.m. a 11:59:00 p.m.,,Puebla,Circuito Interior 1920 (Recolecta en Drive Thru o dentro del Club),72410,19.011316,0000006396,(222) 237-4513,"Sam's Club Puebla La Noria, Pue.",Puebla,-98.187636
Mexico,De 09:00 a.m. a 09:00 p.m.,,Tehuacán,Calz. Adolfo López Mateos 4000 (Recolecta dentro del Club),75855,18.469286,0000004939,(238) 384-7243,"Sam's Club Tehuacán, Pue.",Puebla,-97.418899
Mexico,De 07:00:00 a.m. a 10:00:00 p.m.,,Epigmenio Gonzalez,Anillo Vial ll fray Jupinero (Recolecta en Drive Thru o dentro del Club),76127,20.621321,0000006246,(442) 199 83-40,"Sam's Club Juriquilla, Qro",Queretaro,-100.410696
Mexico,De 07:00:00 a.m. a 10:00:00 p.m.,,Querétaro,Hacienda Vegil 101 Recolecta en Drive Thru o dentro del Club),76187,20.574366,0000004827,(442) 215-3188,"Sam's Club Plaza de Toros, Qro.",Queretaro,-100.409299
Mexico,De 07:00:00 a.m. a 10:00:00 p.m.,,Querétaro ,Blvd. Bernardo Quintana 4115 (Recolecta en Drive Thru o dentro del Club),76130,20.617,0000006397,(442) 217-7000,"Sam's Club Querétaro, Qro.",Queretaro,-100.408419
Mexico,De 07:00:00 a.m. a 10:00:00 p.m.,,San Juan del Río ,Av. Central 18 (Recolecta en Drive Thru o dentro del Club),76802,20.4045652,0000004945,(427) 264-8160,"Sam's Club San Juan del Rio, Qro.",Queretaro,-99.9837238
Mexico,De 07:00:00 a.m. a 10:00:00 p.m.,,Benito Juárez Cancún,"Paseo Kukulcán entre Palenque y Yaxchilán S.M. 21, Mza. 2, Lote 2 (Recolecta dentro del Club)",77500,21.154317,0000006578,(998) 881-0200,"Sam's Club Cancún, Q.R.",Quintana Roo,-86.832268
Mexico,De 07:00:00 a.m. a 10:00:00 p.m.,,Othon P. Blanco,Blvd. Bahia Carmen Ochoa S/N (Recolecta en Drive Thru o dentro del Club),77000,18.494958,0000004951,(983) 129-3118,"Sam's Club Chetumal, Q.R.",Quintana Roo,-88.3042
Mexico,De 07:00:00 a.m. a 10:00:00 p.m.,,Cozumel ,Av. Andrés Quintana Roo S/N (Recolecta en Drive Thru o dentro del Club),77660,20.4913662,0000006227,(987) 869-3584,"Sam's Club Cozumel, Q.R.",Quintana Roo,-86.9464445
Mexico,De 07:00:00 a.m. a 10:00:00 p.m.,,Benito Juarez,Blvd. Luis Donaldo Colosio SM 310 Manzana 1 Lote 4 (Recolecta dentro del Club),77500,21.108263,0000004972,(998) 882-1339,"Sam's Club Cumbres, Q.R.",Quintana Roo,-86.840014
Mexico,De 07:00:00 a.m. a 10:00:00 p.m.,,Solidaridad/Playa del Carmen,"Balam Kanche Lotes 2 C, 3 y 3 A Manzana 30 (Recolecta dentro del Club)",77710,20.618405,0000004841,(984) 803-5970,"Sam's Club Playa del Carmen, Q.R.",Quintana Roo,-87.096863
Mexico,De 09:00:00 a.m. a 09:00:00 p.m.,,Soledad De Graciano Sanchez,"Acceso Norte 106 con arenal, Col. Industrial Mexicana, CP. 78309, San Luis Potosi (Recolecta en Drive Thru o dentro del Club)",78309,22.170621,0000006315,(44)-4814-3669,"Sam's Club Campestre Potosí, S.L.P.",San Luis Potosi,-100.964467
Mexico,De 07:00:00 a.m. a 10:00:00 p.m.,,San Luis Potosí,Av. Benito Juárez Carretera 57 No. 1599 (Recolecta en Drive Thru o dentro del Club),78390,22.1400198,0000006242,(444) 567-5358,"Sam's Club Carretera 57, S.L.P.",San Luis Potosi,-100.9387994
Mexico,De 09:00:00 a.m. a 09:00:00 p.m.,,Ciudad Valles,Monterrey 110 (Recolecta dentro del Club),79050,21.9819111,0000006213,(481) 381-9427,"Sam's Club Cd Valles, S.L.P.",San Luis Potosi,-99.0053022
Mexico,De 07:00:00 a.m. a 10:00:00 p.m.,,San Luis Potosí,Blvd. Salvador Nava 3135 (Recolecta dentro del Club),78110,22.140005,0000006206,(444) 841-5351,"Sam's Club San Luis, S.L.P.",San Luis Potosi,-101.000056
Mexico,De 07:00:00 a.m. a 10:00:00 p.m.,,Culiacán ,Av. Regional 1330 (Recolecta en Drive Thru o dentro del Club),80020,24.813265,0000006586,(667) 759-0200,"Sam's Club Culiacán, Sin.",Sinaloa,-107.411152
Mexico,De 07:00:00 a.m. a 10:00:00 p.m.,,Los Mochis,Blvd. Jiquilpan 1112 Pte L-A (Recolecta en Drive Thru o dentro del Club),81220,25.805754,0000004791,(668) 812-2343,"Sam's Club Los Mochis, Sin.",Sinaloa,-108.990619
Mexico,De 09:00:00 a.m. a 10:00:00 p.m.,,Mazatlán ,Av. Marina Mazatlan (Recolecta dentro del Club),82112,23.252976,0000006309,(669) 913-5374,"Sam's Club Marina, Sin.",Sinaloa,-106.437097
Mexico,De 07:00:00 a.m. a 10:00:00 p.m.,,Mazatlán ,Av. Reforma 2150 (Recolecta dentro del Club),82123,23.24041,0000006583,(669) 989-0500,"Sam's Club Mazatlán, Sin.",Sinaloa,-106.439946
Mexico,De 07:00:00 a.m. a 10:00:00 p.m.,,Culiacán ,Ave. Alvaro Obregón 2861 (Recolecta en Drive Thru o dentro del Club),80227,24.780988,0000004955,(667) 146-0403,"Sam's Club México 68, Sin.",Sinaloa,-107.394962
Mexico,De 07:00:00 a.m. a 09:00:00 p.m.,,Hermosillo,Blvd. José Ma. Morelos S/N (Recolecta en Drive Thru o dentro del Club),81500,29.1328389,0000006241,(662) 211-3900,"Sam's Club Blvd. Morelos, Son.",Sonora,-110.9532452
MX,De 07:00:00 a.m. a 09:00:00 p.m.,,Sonora,"Blvd. Dr. Antonio Quiroga, No 329, Con Carretera 26, Col. Floresta, CP 83316, Hermosillo, Sonora",83316,29.11,0000006322,(66) 21-18-82-14,"Sam's Club Boulevard Quiroga, Son",Sonora,-111.023
Mexico,De 07:00:00 a.m. a 09:00:00 p.m.,,Cajeme,5 de Febrero No. 1074 (Recolecta dentro del Club),85010,27.515998,0000004792,(644) 414-7179,"Sam's Club Cd. Obregón, Son.",Sonora,-109.93068
Mexico,De 09:00:00 a.m. a 09:00:00 p.m.,,Guaymas,Carretara Internacional Mexico Nogales km 1982 No. 1400 (Recolecta dentro del Club),64320,31.3327175,0000006210,(622) 221-4210,"Sam's Club Guaymas, Son.",Sonora,-110.940789
Mexico,De 07:00:00 a.m. a 09:00:00 p.m.,,Hermosillo,Río Sonora S/N (Recolecta en Drive Thru o dentro del Club),83289,29.067766,0000008121,(662) 259-0304,"Sam's Club Hermosillo, Son.",Sonora,-110.958352
Mexico,De 09:00:00 a.m. a 09:00:00 p.m.,,Navojoa,Blvd. Centenario No.117 (Recolecta dentro del Club),85830,27.090078,0000006298,(642) 421-2188,"Sam's Club Navojoa, Son.",Sonora,-109.448547
Mexico,De 09:00:00 a.m. a 09:00:00 p.m.,,Nogales,Blvd. Luis Donaldo Colosio Murrieta 2770 (Recolecta dentro del Club),84068,31.288655,0000006288,(631) 319-2545,"Sam's Club Nogales, Son.",Sonora,-110.942785
Mexico,De 09:00:00 a.m. a 09:00:00 p.m.,,Puerto Peñasco,Blvd. Benito Juárez S/N (Recolecta dentro del Club),83553,31.324064,0000004983,(638) 102-1508,"Sam's Club Puerto Peñasco, Son.",Sonora,-113.521334
Mexico,De 07:00:00 a.m. a 10:00:00 p.m.,,Cárdenas,Periferico Sur 2 (Recolecta dentro del Club),86560,17.9988051,0000006212,(937) 372-9794,"Sam's Club Cardenas, Tab",Tabasco,-93.3866107
Mexico,De 07:00:00 a.m. a 10:00:00 p.m.,,"Centro, Tabasco",Av. Universidad No. 224 (Recolecta dentro del Club),86060,18.004047,0000006308,,"Sam's Club Universidad, Tab",Tabasco,-92.924479
Mexico,De 07:00:00 a.m. a 10:00:00 p.m.,,Centro,Prol. Paseo Usumacinta 409 (Recolecta en Drive Thru o dentro del Club),86090,17.971625,0000004911,(993) 314-8012,"Sam's Club Villahermosa Guayabal, Tab.",Tabasco,-92.922294
Mexico,De 07:00:00 a.m. a 10:00:00 p.m.,,Centro,Anillo Periférico S/N (Recolecta en Drive Thru o dentro del Club),86035,17.989387,0000006574,(993) 354-4002,"Sam's Club Villahermosa, Tab.",Tabasco,-92.966845
Mexico,De 07:00:00 a.m. a 09:00:00 p.m.,,Cd. Victoria,Blvd. Adolfo López Mateos No. 150 Local A (Recolecta en Drive Thru o dentro del Club),87049,23.750861,0000004801,(834) 305-0717,"Sam's Club Cd. Victoria, Tamps.",Tamaulipas,-99.156482
Mexico,De 07:00:00 a.m. a 10:00:00 p.m.,,Matamoros,Ave. Pedro Cardenas 4995 b km. 2.5 (Recolecta en Drive Thru o dentro del Club),87396,25.832091,0000004950,(868) 819-3466,"Sam's Club Matamoros, Tamps",Tamaulipas,-97.511644
Mexico,De 07:00:00 a.m. a 10:00:00 p.m.,,Reynosa,Blvd. Hidalgo 1935 (Recolecta dentro del Club),88700,26.075398,0000004941,(899) 180-0506,"Sam's Club Reynosa, Tamps",Tamaulipas,-98.312557
Mexico,De 07:00:00 a.m. a 10:00:00 p.m.,,Tampico,Av. Hidalgo 6112 Recolecta en Drive Thru o dentro del Club),89344,22.288466,0000006577,(833) 155-5300,"Sam's Club Tampico, Tamps.",Tamaulipas,-97.875282
Mexico,De 07:00:00 a.m. a 09:00:00 p.m.,,San Pablo Apetatitlán ,Carretera Apizaco-Puebla 3 (Recolecta dentro del Club),90610,19.34227,0000006208,(246) 468-7514,"Sam's Club El Molinito, Tlax.",Tlaxcala,-98.19859
Mexico,De 07:00:00 a.m. a 08:00:00 p.m.,,Coatzacoalcos,Av. De las Palmas 100 (Recolecta en Drive Thru o dentro del Club),96558,18.143726,0000006274,(921) 218-3459,"Sam's Club Coatzacoalcos, Ver.",Veracruz de Ignacio de la Llave,-94.473973
Mexico,De 07:00:00 a.m. a 10:00:00 p.m.,,Córdoba,Boulevard Cordoba-Fortin 4025 (Recolecta dentro del Club),94470,18.902429,0000004862,(271) 736-1753,"Sam's Club Córdoba, Ver.",Veracruz de Ignacio de la Llave,-96.959581
Mexico,De 07:00:00 a.m. a 10:00:00 p.m.,,Veracruz,Calzada Rafael Cuervo 2300 (Recolecta dentro del Club),91885,19.2148042,0000006209,(229) 980-0817,"Sam's Club Playa Norte, Ver.",Veracruz de Ignacio de la Llave,-96.1937571
Mexico,De 08:00:00 a.m. a 10:00:00 p.m.,,Poza Rica,Carreteraa Cazones Km. 50 (Recolecta dentro del Club),93303,20.569676,0000004938,(782) 821-4975,"Sam's Club Poza Rica, Ver.",Veracruz de Ignacio de la Llave,-97.434965
Mexico,De 09:00:00 a.m. a 10:00:00 p.m.,,Tuxpan,Carr. Tuxpan-Tampico km 88 (Recolecta dentro del Club),92894,20.9645689,0000006218,(783) 835-4412,"Sam's Club Tuxpan, Ver.",Veracruz de Ignacio de la Llave,-97.4044961
Mexico,De 08:00:00 a.m. a 10:00:00 p.m.,,Boca del Rio,Av. Ejército Mexicano 26 (Recolecta dentro del Club),94297,19.142888,0000008122,(229) 989-0200,"Sam's Club Veracruz, Ver.",Veracruz de Ignacio de la Llave,-96.115855
Mexico,De 09:00 a.m. a 09:00 p.m.,,Xalapa,Carretera Xalapa-Veracruz 191 (Recolecta en Drive Thru o dentro del Club),91190,19.522648,0000004878,(228) 813-9454,"Sam's Club Xalapa, Ver.",Veracruz de Ignacio de la Llave,-96.889179
Mexico,De 07:00:00 a.m. a 10:00:00 p.m.,,Mérida,Calle 91 por 95 y 96 (Recolecta en Drive Thru o dentro del Club),97002,20.944094,0000006286,(999) 176-7765,"Sam's Club Aviación, Yuc.",Yucatan,-89.649405
Mexico,De 07:00:00 a.m. a 10:00:00 p.m.,,Mérida,C-SEIS 400 (Recolecta en Drive Thru o dentro del Club),97130,21.00195,0000004987,(999) 196-2032,"Sam's Club Mérida Oriente, Yuc.",Yucatan,-89.592669
Mexico,De 07:00:00 a.m. a 10:00:00 p.m.,,Mérida,Prol. Paseo Montejo 312 (Recolecta en Drive Thru o dentro del Club),97118,21.010464,0000006576,(999) 944-9752,"Sam's Club Mérida, Yuc.",Yucatan,-89.611305
Mexico,De 09:00:00 a.m. a 09:00:00 p.m.,,Fresnillo,Blvd. Jesús Varela Rico 201 (Recolecta dentro del Club),99030,23.17534,0000006294,(493) 878-2260,"Sam's Club Fresnillo, Zac.",Zacatecas,-102.89292
Mexico,De 07:00:00 a.m. a 10:00:00 p.m.,,Zacatecas,Av. Fco. García Salinas 1602 (Recolecta en Drive Thru o dentro del Club),98098,22.758082,0000004790,(492) 899-1203,"Sam's Club Zacatecas, Zac.",Zacatecas,-102.545577
