id,external_id,name,number,street,zip_code,suburb,province,state,phone,latitude,longitude,status,schedule,seller
1001,1001,MADERO,No. 4,Av. Francisco I. Madero,06500,Centro,Cuauhtémoc,CDMX,"{'lada': '--', 'number': '5555121331'}",19.434223,-99.140098,True,De Lunes a Domingo de 08:00 a 22:00,"{'id': 3496, 'name': 'Sanborns', 'logo': 'https://resources.claroshop.com/medios-plazavip/mkt/5c3cd792844b8_sanbornssjpeg.jpg', 'status': True}"
1010,1010,LINDAVISTA,No. 313,Av. Montevideo,07300,Lindavista,Gustavo A. Madero,CDMX,"{'lada': '--', 'number': '5555861100'}",19.490739,-99.132959,True,De Lunes a Domingo de 08:00 a 22:00,"{'id': 3496, 'name': 'Sanborns', 'logo': 'https://resources.claroshop.com/medios-plazavip/mkt/5c3cd792844b8_sanbornssjpeg.jpg', 'status': True}"
1011,1011,UNIVERSIDAD,No. 1000,Av. Universidad,03300,Santa Cruz Atoyac,Benito Juárez,CDMX,"{'lada': '--', 'number': '5556044634'}",19.368156,-99.165933,True,De Lunes a Domingo de 08:00 a 22:00,"{'id': 3496, 'name': 'Sanborns', 'logo': 'https://resources.claroshop.com/medios-plazavip/mkt/5c3cd792844b8_sanbornssjpeg.jpg', 'status': True}"
1013,1013,SATÉLITE,No. 2256,Circuito Centro Comercial,53100,Ciudad Satélite,Naucalpan de Juárez,ESTADO DE MÉXICO,"{'lada': '--', 'number': '5555624737'}",19.510712,-99.234422,True,De Lunes a Domingo de 08:00 a 22:00,"{'id': 3496, 'name': 'Sanborns', 'logo': 'https://resources.claroshop.com/medios-plazavip/mkt/5c3cd792844b8_sanbornssjpeg.jpg', 'status': True}"
1015,1015,CENTENARIO,No. 5,Parque Centenario,04000,Del Carmén,Coyoacán,CDMX,"{'lada': '--', 'number': '5556597135'}",19.349826,-99.163305,True,De Lunes a Domingo de 08:00 a 22:00,"{'id': 3496, 'name': 'Sanborns', 'logo': 'https://resources.claroshop.com/medios-plazavip/mkt/5c3cd792844b8_sanbornssjpeg.jpg', 'status': True}"
1016,1016,PEDREGAL,No. 630,Avenida San Jerónimo,01900,Jardínes del Pedregal,Álvaro Obregón,CDMX,"{'lada': '--', 'number': '5555955631'}",19.331605,-99.207777,True,De Lunes a Domingo de 08:00 a 22:00,"{'id': 3496, 'name': 'Sanborns', 'logo': 'https://resources.claroshop.com/medios-plazavip/mkt/5c3cd792844b8_sanbornssjpeg.jpg', 'status': True}"
1017,1017,BOKER,No. 35,Isabel la Católica,06000,Centro,Cuauhtémoc,CDMX,"{'lada': '--', 'number': '5555181038'}",19.43239,-99.136545,True,De Lunes a Domingo de 08:00 a 22:00,"{'id': 3496, 'name': 'Sanborns', 'logo': 'https://resources.claroshop.com/medios-plazavip/mkt/5c3cd792844b8_sanbornssjpeg.jpg', 'status': True}"
1018,1018,SAN ANTONIO,No. 882,Insurgentes Sur,03100,Del Valle Centro,Benito Juárez,CDMX,"{'lada': '--', 'number': '5555230185'}",19.386767,-99.174246,True,De Lunes a Domingo de 08:00 a 22:00,"{'id': 3496, 'name': 'Sanborns', 'logo': 'https://resources.claroshop.com/medios-plazavip/mkt/5c3cd792844b8_sanbornssjpeg.jpg', 'status': True}"
1019,1019,XOLA,No. 1856,Av. Xola,03020,Narvarte,Benito Juárez,CDMX,"{'lada': '--', 'number': '5555380983'}",19.395527,-99.147299,True,De Lunes a Domingo de 08:00 a 22:00,"{'id': 3496, 'name': 'Sanborns', 'logo': 'https://resources.claroshop.com/medios-plazavip/mkt/5c3cd792844b8_sanbornssjpeg.jpg', 'status': True}"
1021,1021,PERISUR,No. 4690,Perisur Periférico,04600,Jardines del Pedregal,Coyoacán,CDMX,"{'lada': '--', 'number': '5556061270'}",19.30396,-99.189277,True,De Lunes a Domingo de 08:00 a 22:00,"{'id': 3496, 'name': 'Sanborns', 'logo': 'https://resources.claroshop.com/medios-plazavip/mkt/5c3cd792844b8_sanbornssjpeg.jpg', 'status': True}"
1022,1022,AZCAPOTZALCO,No. 527,Av. Azcapotzalco,02000,Centro de Azcapotzalco,Azcapotzalco,CDMX,"{'lada': '--', 'number': '5555614311'}",19.47826,-99.186911,True,De Lunes a Domingo de 08:00 a 22:00,"{'id': 3496, 'name': 'Sanborns', 'logo': 'https://resources.claroshop.com/medios-plazavip/mkt/5c3cd792844b8_sanbornssjpeg.jpg', 'status': True}"
1023,1023,VILLA COAPA,No. 728,Calzada Acoxpa,14390,Villa Coapa,Tlalpan,CDMX,"{'lada': '--', 'number': '5555945871'}",19.293822,-99.125881,True,De Lunes a Domingo de 08:00 a 22:00,"{'id': 3496, 'name': 'Sanborns', 'logo': 'https://resources.claroshop.com/medios-plazavip/mkt/5c3cd792844b8_sanbornssjpeg.jpg', 'status': True}"
1025,1025,RIVIERA,No. 1164,Av. Division del Norte,03100,Del Valle,Benito Juárez,CDMX,"{'lada': '--', 'number': '5555595518'}",19.380476,-99.158999,True,De Lunes a Domingo de 08:00 a 22:00,"{'id': 3496, 'name': 'Sanborns', 'logo': 'https://resources.claroshop.com/medios-plazavip/mkt/5c3cd792844b8_sanbornssjpeg.jpg', 'status': True}"
1026,1026,PALMAS,No. 781,Avenida Paseo de las Palmas,11560,Lomas de Chapultepec V Sección,Miguel Hidalgo,CDMX,"{'lada': '--', 'number': '5552021174'}",19.428941,-99.216859,True,De Lunes a Domingo de 08:00 a 22:00,"{'id': 3496, 'name': 'Sanborns', 'logo': 'https://resources.claroshop.com/medios-plazavip/mkt/5c3cd792844b8_sanbornssjpeg.jpg', 'status': True}"
1027,1027,MASARYK,No. 345,Hegel,11550,Polanco IV Sección,Miguel Hidalgo,CDMX,"{'lada': '--', 'number': '5552552513'}",19.431701,-99.188291,True,De Lunes a Domingo de 08:00 a 22:00,"{'id': 3496, 'name': 'Sanborns', 'logo': 'https://resources.claroshop.com/medios-plazavip/mkt/5c3cd792844b8_sanbornssjpeg.jpg', 'status': True}"
1028,1028,BUENAVISTA,No. 70,Avenida Insurgentes Norte,06400,Santa María la Ribera,Cuauhtémoc,CDMX,"{'lada': '--', 'number': '5555350683'}",19.442497,-99.154965,True,De Lunes a Domingo de 08:00 a 22:00,"{'id': 3496, 'name': 'Sanborns', 'logo': 'https://resources.claroshop.com/medios-plazavip/mkt/5c3cd792844b8_sanbornssjpeg.jpg', 'status': True}"
1029,1029,CUAUTITLÁN,s/n,Autopista Edomex-Queretaro KM 37 Manzana - A,54750,Arcos del Alba,Cuautitlán Izcalli,ESTADO DE MÉXICO,"{'lada': '--', 'number': '5558714120'}",19.64953,-99.197726,True,De Lunes a Domingo de 08:00 a 22:00,"{'id': 3496, 'name': 'Sanborns', 'logo': 'https://resources.claroshop.com/medios-plazavip/mkt/5c3cd792844b8_sanbornssjpeg.jpg', 'status': True}"
1030,1030,CUERNAVACA CENTRO,No. 28,Bvld. Benito Juárez y Abasolo,62000,Centro,Cuernavaca,MORELOS,"{'lada': '--', 'number': '7773184602'}",18.918963,-99.234151,True,De Lunes a Domingo de 08:00 a 22:00,"{'id': 3496, 'name': 'Sanborns', 'logo': 'https://resources.claroshop.com/medios-plazavip/mkt/5c3cd792844b8_sanbornssjpeg.jpg', 'status': True}"
1031,1031,MONTERREY CENTRO,No. 920,Calle General Mariano Escobedo Sur,64000,Centro,Monterrey,NUEVO LEON,"{'lada': '--', 'number': '8183431834'}",25.666884,-100.312163,True,De Lunes a Domingo de 08:00 a 22:00,"{'id': 3496, 'name': 'Sanborns', 'logo': 'https://resources.claroshop.com/medios-plazavip/mkt/5c3cd792844b8_sanbornssjpeg.jpg', 'status': True}"
1032,1032,ACAPULCO CENTRO,No. 209,Avenida Costera Miguel Alemán,39300,Centro Acapulco,Acapulco,GUERRERO,"{'lada': '01', 'number': '7444824095'}",16.84934,-99.906758,False,Cerrada Temporalmente,"{'id': 3496, 'name': 'Sanborns', 'logo': 'https://resources.claroshop.com/medios-plazavip/mkt/5c3cd792844b8_sanbornssjpeg.jpg', 'status': True}"
1033,1033,PUEBLA CENTRO,No. 6,Av. 2 Oriente,72000,Centro,Puebla,PUEBLA,"{'lada': '--', 'number': '2222423961'}",19.045053,-98.197614,True,De Lunes a Domingo de 08:00 a 22:00,"{'id': 3496, 'name': 'Sanborns', 'logo': 'https://resources.claroshop.com/medios-plazavip/mkt/5c3cd792844b8_sanbornssjpeg.jpg', 'status': True}"
1035,1035,GUADALAJARA VALLARTA,No. 1600,Av. Vallarta,44150,Lafayette,Guadalajara,JALISCO,"{'lada': '--', 'number': '3336151034'}",20.675023,-103.371376,True,De Lunes a Domingo de 08:00 a 22:00,"{'id': 3496, 'name': 'Sanborns', 'logo': 'https://resources.claroshop.com/medios-plazavip/mkt/5c3cd792844b8_sanbornssjpeg.jpg', 'status': True}"
1036,1036,MORELIA,No. 1000,Av. Enrique Ramírez Miguel,58270,Las Américas,Morelia,MICHOACAN,"{'lada': '--', 'number': '4433147227'}",19.68888,-101.158155,True,De Lunes a Domingo de 08:00 a 22:00,"{'id': 3496, 'name': 'Sanborns', 'logo': 'https://resources.claroshop.com/medios-plazavip/mkt/5c3cd792844b8_sanbornssjpeg.jpg', 'status': True}"
1037,1037,GUADALAJARA PLAZA DEL SOL,No. 2718,Av. Adolfo López Mateos Sur,45050,Ciudad del Sol,Guadalajara,JALISCO,"{'lada': '--', 'number': '3331213675'}",20.651206,-103.403731,True,De Lunes a Domingo de 08:00 a 22:00,"{'id': 3496, 'name': 'Sanborns', 'logo': 'https://resources.claroshop.com/medios-plazavip/mkt/5c3cd792844b8_sanbornssjpeg.jpg', 'status': True}"
1038,1038,SAN LUIS POTOSÍ,No. 1300,Avenida Santos Degollado,78269,Tangamanga,San Luis Potosí,SAN LUIS POTOSI,"{'lada': '--', 'number': '4448110721'}",22.140141,-101.00162,True,De Lunes a Domingo de 08:00 a 22:00,"{'id': 3496, 'name': 'Sanborns', 'logo': 'https://resources.claroshop.com/medios-plazavip/mkt/5c3cd792844b8_sanbornssjpeg.jpg', 'status': True}"
1039,1039,TIJUANA,No. 1102,Av. Revolucion,22000,Zona Centro,Tijuana,BAJA CALIFORNIA NORTE,"{'lada': '--', 'number': '6646852644'}",32.528091,-117.035917,True,De Lunes a Domingo de 08:00 a 22:00,"{'id': 3496, 'name': 'Sanborns', 'logo': 'https://resources.claroshop.com/medios-plazavip/mkt/5c3cd792844b8_sanbornssjpeg.jpg', 'status': True}"
1040,1040,CIUDAD JUAREZ,No. 3809,Av. Paseo Triunfo de la República,32300,Zona Pronaf Condominio La Plata,Ciudad Juárez,CHIHUAHUA,"{'lada': '--', 'number': '6566169024'}",31.737437,-106.450774,True,De Lunes a Domingo de 08:00 a 22:00,"{'id': 3496, 'name': 'Sanborns', 'logo': 'https://resources.claroshop.com/medios-plazavip/mkt/5c3cd792844b8_sanbornssjpeg.jpg', 'status': True}"
1041,1041,TOLUCA,No. 200,Paseo Cristóbal Colón,50120,Ciprés,Toluca de Lerdo,ESTADO DE MÉXICO,"{'lada': '--', 'number': '7222122011'}",19.278495,-99.659633,True,De Lunes a Domingo de 08:00 a 22:00,"{'id': 3496, 'name': 'Sanborns', 'logo': 'https://resources.claroshop.com/medios-plazavip/mkt/5c3cd792844b8_sanbornssjpeg.jpg', 'status': True}"
1042,1042,DEL VALLE,No. 1266,Av. Insurgentes Sur,03100,Del Valle,Benito Juárez,CDMX,"{'lada': '--', 'number': '5555750550'}",19.374874,-99.178306,True,De Lunes a Domingo de 08:00 a 22:00,"{'id': 3496, 'name': 'Sanborns', 'logo': 'https://resources.claroshop.com/medios-plazavip/mkt/5c3cd792844b8_sanbornssjpeg.jpg', 'status': True}"
1043,1043,MONTERREY GALERÍAS,No. 2500,Insurgentes,64630,Vista Hermosa,Monterrey,NUEVO LEON,"{'lada': '--', 'number': '8183332720'}",25.681241,-100.355615,True,De Lunes a Domingo de 08:00 a 22:00,"{'id': 3496, 'name': 'Sanborns', 'logo': 'https://resources.claroshop.com/medios-plazavip/mkt/5c3cd792844b8_sanbornssjpeg.jpg', 'status': True}"
1044,1044,HERMOSILLO,s/n,Blvd. Luis Encinas 245 esq. Blvd. Narvarte,83000,Hermosillo Centro,Hermosillo,SONORA,"{'lada': '--', 'number': '6622107350'}",29.087221,-110.964794,True,De Lunes a Domingo de 08:00 a 22:00,"{'id': 3496, 'name': 'Sanborns', 'logo': 'https://resources.claroshop.com/medios-plazavip/mkt/5c3cd792844b8_sanbornssjpeg.jpg', 'status': True}"
1045,1045,MONTERREY SAN AGUSTÍN,No. 1000,Avenida Batallon de San Patricio,66250,Residencial San Agustín,Monterrey,NUEVO LEON,"{'lada': '--', 'number': '8183684610'}",25.649494,-100.335702,True,De Lunes a Domingo de 08:00 a 22:00,"{'id': 3496, 'name': 'Sanborns', 'logo': 'https://resources.claroshop.com/medios-plazavip/mkt/5c3cd792844b8_sanbornssjpeg.jpg', 'status': True}"
1046,1046,MEXICALI,s/n,Calz. Independencia y calle de la República,21000,Centro Cívico,Mexicali,BAJA CALIFORNIA NORTE,"{'lada': '--', 'number': '6865570301'}",32.640767,-115.473315,True,De Lunes a Domingo de 08:00 a 22:00,"{'id': 3496, 'name': 'Sanborns', 'logo': 'https://resources.claroshop.com/medios-plazavip/mkt/5c3cd792844b8_sanbornssjpeg.jpg', 'status': True}"
1048,1048,QUERÉTARO,No. 691,Prolongación Corregidora,76160,Parque Industrial,Querétaro,QUERETARO,"{'lada': '--', 'number': '4422206553'}",20.615621,-100.392271,True,De Lunes a Domingo de 08:00 a 22:00,"{'id': 3496, 'name': 'Sanborns', 'logo': 'https://resources.claroshop.com/medios-plazavip/mkt/5c3cd792844b8_sanbornssjpeg.jpg', 'status': True}"
1051,1051,SAN MATEO,s/n,"Av. de las Torres, De los Alcanfores",53247,Lomas de Occipaco,Naucalpan de Juárez,ESTADO DE MÉXICO,"{'lada': '--', 'number': '5555602039'}",19.487201,-99.258378,True,De Lunes a Domingo de 08:00 a 22:00,"{'id': 3496, 'name': 'Sanborns', 'logo': 'https://resources.claroshop.com/medios-plazavip/mkt/5c3cd792844b8_sanbornssjpeg.jpg', 'status': True}"
1052,1052,LOMAS VERDES,No. 545,Av. Lomas Verdes,53120,Lomas Verdes,Naucalpan de Juárez,ESTADO DE MÉXICO,"{'lada': '--', 'number': '5553435008'}",19.506187,-99.258556,True,De Lunes a Domingo de 08:00 a 22:00,"{'id': 3496, 'name': 'Sanborns', 'logo': 'https://resources.claroshop.com/medios-plazavip/mkt/5c3cd792844b8_sanbornssjpeg.jpg', 'status': True}"
1054,1054,CUERNAVACA PLAZA,No. 1110,Av. Vicente Guerrero,62270,Lomas de la Selva,Cuernavaca,MORELOS,"{'lada': '--', 'number': '7773188402'}",18.935431,-99.229585,True,De Lunes a Domingo de 08:00 a 22:00,"{'id': 3496, 'name': 'Sanborns', 'logo': 'https://resources.claroshop.com/medios-plazavip/mkt/5c3cd792844b8_sanbornssjpeg.jpg', 'status': True}"
1055,1055,INTERLOMAS,Mz 111 Lote 1,Centro comercial Interlomas Blvd. Interlomas,52787,Bosques de las Palmas,Huixquilucan,ESTADO DE MÉXICO,"{'lada': '--', 'number': '5552919172'}",19.402111,-99.269731,True,De Lunes a Domingo de 08:00 a 22:00,"{'id': 3496, 'name': 'Sanborns', 'logo': 'https://resources.claroshop.com/medios-plazavip/mkt/5c3cd792844b8_sanbornssjpeg.jpg', 'status': True}"
1057,1057,ERMITA,No. 1897,Avenida Presidente Plutarco Elías Calles,03580,Sineo Miravalle,Benito Juárez,CDMX,"{'lada': '52', 'number': '5555320552'}",19.36012,-99.139656,True,De Lunes a Domingo de 08:00 a 22:00,"{'id': 3496, 'name': 'Sanborns', 'logo': 'https://resources.claroshop.com/medios-plazavip/mkt/5c3cd792844b8_sanbornssjpeg.jpg', 'status': True}"
1059,1059,PERALVILLO,No. 2,Calzada de los Misterios,06950,Ex-hipodromo de Peralvillo,Cuauhtémoc,CDMX,"{'lada': '--', 'number': '5555830252'}",19.45444,-99.130997,True,De Lunes a Domingo de 08:00 a 22:00,"{'id': 3496, 'name': 'Sanborns', 'logo': 'https://resources.claroshop.com/medios-plazavip/mkt/5c3cd792844b8_sanbornssjpeg.jpg', 'status': True}"
1060,1060,TIJUANA RIO,No. 10130,Av. Paseo de los Héroes,22010,Zona Urbana Rio,Tijuana,BAJA CALIFORNIA NORTE,"{'lada': '--', 'number': '6646842517'}",32.525817,-117.018204,True,De Lunes a Domingo de 08:00 a 22:00,"{'id': 3496, 'name': 'Sanborns', 'logo': 'https://resources.claroshop.com/medios-plazavip/mkt/5c3cd792844b8_sanbornssjpeg.jpg', 'status': True}"
1062,1062,ACAPULCO OCEANIC,No. 3111,Avenida Costera Miguel Alemán,39850,Costa Azul,Acapulco,GUERRERO,"{'lada': '01', 'number': '7444842024'}",16.847324,-99.850337,False,Cerrada Temporalmente,"{'id': 3496, 'name': 'Sanborns', 'logo': 'https://resources.claroshop.com/medios-plazavip/mkt/5c3cd792844b8_sanbornssjpeg.jpg', 'status': True}"
1063,1063,BALBUENA,No. 647,Fray Servando Teresa de Mier,15900,Jardin Balbuena,Venustiano Carranza,CDMX,"{'lada': '--', 'number': '5557640938'}",19.41994,-99.11456,True,De Lunes a Domingo de 08:00 a 22:00,"{'id': 3496, 'name': 'Sanborns', 'logo': 'https://resources.claroshop.com/medios-plazavip/mkt/5c3cd792844b8_sanbornssjpeg.jpg', 'status': True}"
1064,1064,FUENTES BROTANTES,No. 3996,Av. Insurgentes Sur,14000,Tlalpan Centro II,Tlalpan,CDMX,"{'lada': '--', 'number': '5555131071'}",19.287807,-99.174186,True,De Lunes a Domingo de 08:00 a 22:00,"{'id': 3496, 'name': 'Sanborns', 'logo': 'https://resources.claroshop.com/medios-plazavip/mkt/5c3cd792844b8_sanbornssjpeg.jpg', 'status': True}"
1065,1065,TICOMÁN,No. 445,Av. Miguel Othón de Mendizabal Ote,07300,La Escalera,Gustavo A. Madero,CDMX,"{'lada': '--', 'number': '5557528061'}",19.507961,-99.142262,True,De Lunes a Domingo de 08:00 a 22:00,"{'id': 3496, 'name': 'Sanborns', 'logo': 'https://resources.claroshop.com/medios-plazavip/mkt/5c3cd792844b8_sanbornssjpeg.jpg', 'status': True}"
1068,1068,HOSPITALES,No. 4737,Calzada de Tlalpan,14050,Toriello Guerra,Tlalpan,CDMX,"{'lada': '--', 'number': '5555287627'}",19.29163,-99.16062,True,De Lunes a Domingo de 08:00 a 22:00,"{'id': 3496, 'name': 'Sanborns', 'logo': 'https://resources.claroshop.com/medios-plazavip/mkt/5c3cd792844b8_sanbornssjpeg.jpg', 'status': True}"
1071,1071,GALERÍAS COAPA,No. 519,Calzada del Hueso,14300,Residencial Miramontes,Tlalpan,CDMX,"{'lada': '--', 'number': '5551623062'}",19.302772,-99.122992,True,De Lunes a Domingo de 08:00 a 22:00,"{'id': 3496, 'name': 'Sanborns', 'logo': 'https://resources.claroshop.com/medios-plazavip/mkt/5c3cd792844b8_sanbornssjpeg.jpg', 'status': True}"
1072,1072,VERACRUZ,s/n,Blvd. Adolfo Ruíz Cortinez. Esq. Las Américas ,94290,Costa Verde ,Boca del Rio,VERACRUZ,"{'lada': '--', 'number': '2999219634'}",19.139649,-96.104463,True,De Lunes a Domingo de 08:00 a 22:00,"{'id': 3496, 'name': 'Sanborns', 'logo': 'https://resources.claroshop.com/medios-plazavip/mkt/5c3cd792844b8_sanbornssjpeg.jpg', 'status': True}"
1073,1073,GALERÍAS INSURGENTES,No. 179,Parroquia,03100,Del Valle,Benito Juárez,CDMX,"{'lada': '--', 'number': '5555344201'}",19.370924,-99.178278,True,De Lunes a Domingo de 08:00 a 22:00,"{'id': 3496, 'name': 'Sanborns', 'logo': 'https://resources.claroshop.com/medios-plazavip/mkt/5c3cd792844b8_sanbornssjpeg.jpg', 'status': True}"
1075,1075,CENTRO INSURGENTES,No. 1605,Av. Insurgentes Sur,03900,San José Insurgentes,Benito Juárez,CDMX,"{'lada': '--', 'number': '5556625077'}",19.36352,-99.182913,True,De Lunes a Domingo de 08:00 a 22:00,"{'id': 3496, 'name': 'Sanborns', 'logo': 'https://resources.claroshop.com/medios-plazavip/mkt/5c3cd792844b8_sanbornssjpeg.jpg', 'status': True}"
1076,1076,SANTA FÉ,No. 3800,Av. Vasco de Quiroga,01219,Lomas de Santa Fe,Cuajimalpa de Morelos,CDMX,"{'lada': '--', 'number': '5552590127'}",19.361745,-99.273372,True,De Lunes a Domingo de 08:00 a 22:00,"{'id': 3496, 'name': 'Sanborns', 'logo': 'https://resources.claroshop.com/medios-plazavip/mkt/5c3cd792844b8_sanbornssjpeg.jpg', 'status': True}"
1077,1077,GÉNOVA,No. 130,Londres,06600,Juárez,Cuauhtémoc,CDMX,"{'lada': '52', 'number': '5555254039'}",19.42517,-99.164391,False,Cerrada Permanentemente,"{'id': 3496, 'name': 'Sanborns', 'logo': 'https://resources.claroshop.com/medios-plazavip/mkt/5c3cd792844b8_sanbornssjpeg.jpg', 'status': True}"
1078,1078,PLAZA CENTRAL,No. 1635,Canal Río Churubusco,09040,Área Federal Central de Abastos,Iztapalapa,CDMX,"{'lada': '--', 'number': '5556008773'}",19.375806,-99.095703,True,De Lunes a Domingo de 08:00 a 22:00,"{'id': 3496, 'name': 'Sanborns', 'logo': 'https://resources.claroshop.com/medios-plazavip/mkt/5c3cd792844b8_sanbornssjpeg.jpg', 'status': True}"
1079,1079,XOCHIMILCO,No. 318,Guadalupe I. Ramírez,16050,Tepepan San Marcos Xochimilco.,Xochimilco,CDMX,"{'lada': '--', 'number': '5556411996'}",19.265384,-99.114446,True,De Lunes a Domingo de 08:00 a 22:00,"{'id': 3496, 'name': 'Sanborns', 'logo': 'https://resources.claroshop.com/medios-plazavip/mkt/5c3cd792844b8_sanbornssjpeg.jpg', 'status': True}"
1080,1080,PUEBLA HÉROES,No. 8,Boulevard Héroes de 5 de Mayo,72530,Huexotitla,Puebla,PUEBLA,"{'lada': '--', 'number': '2222404581'}",19.026649,-98.208047,True,De Lunes a Domingo de 08:00 a 22:00,"{'id': 3496, 'name': 'Sanborns', 'logo': 'https://resources.claroshop.com/medios-plazavip/mkt/5c3cd792844b8_sanbornssjpeg.jpg', 'status': True}"
1081,1081,AÉROPUERTO,No. 123,Boulevard Puerto Aéreo,15530,Moctezuma,Venustiano Carranza,CDMX,"{'lada': '--', 'number': '5555712411'}",19.424231,-99.094374,True,De Lunes a Domingo de 08:00 a 22:00,"{'id': 3496, 'name': 'Sanborns', 'logo': 'https://resources.claroshop.com/medios-plazavip/mkt/5c3cd792844b8_sanbornssjpeg.jpg', 'status': True}"
1082,1082,ECHEGARAY,No. 226,Av. Gustavo Baz Prada,53300,Colón Echegaray,Naucalpan de Juárez,ESTADO DE MÉXICO,"{'lada': '--', 'number': '5553634006'}",19.494671,-99.226487,True,De Lunes a Domingo de 08:00 a 22:00,"{'id': 3496, 'name': 'Sanborns', 'logo': 'https://resources.claroshop.com/medios-plazavip/mkt/5c3cd792844b8_sanbornssjpeg.jpg', 'status': True}"
1083,1083,ACAPULCO CALINDA,No. 1260,Avenida Costera Miguel Alemán,39690,Club Deportivo,Acapulco,GUERRERO,"{'lada': '01', 'number': '7444844465'}",16.855602,-99.860876,False,Cerrada Temporalmente,"{'id': 3496, 'name': 'Sanborns', 'logo': 'https://resources.claroshop.com/medios-plazavip/mkt/5c3cd792844b8_sanbornssjpeg.jpg', 'status': True}"
1085,1085,LORETO,No. 46,Ignacio Manuel Altamirano,01090,Tizapan,Álvaro Obregón,CDMX,"{'lada': '--', 'number': '5556163267'}",19.338667,-99.193043,True,De Lunes a Domingo de 08:00 a 22:00,"{'id': 3496, 'name': 'Sanborns', 'logo': 'https://resources.claroshop.com/medios-plazavip/mkt/5c3cd792844b8_sanbornssjpeg.jpg', 'status': True}"
1088,1088,PERINORTE,No. 2,Hacienda de Sierra Vieja,54769,Hacienda del Parque,Cuautitlán Izcalli,ESTADO DE MÉXICO,"{'lada': '--', 'number': '5558862158'}",19.601892,-99.190054,True,De Lunes a Domingo de 08:00 a 22:00,"{'id': 3496, 'name': 'Sanborns', 'logo': 'https://resources.claroshop.com/medios-plazavip/mkt/5c3cd792844b8_sanbornssjpeg.jpg', 'status': True}"
1091,1091,PACHUCA,No. 100,Blvd. Everardo Marquez,42064,Ex Hacienda Coscotitlán,Pachuca,HIDALGO,"{'lada': '--', 'number': '7717180489'}",20.114306,-98.747119,True,De Lunes a Domingo de 08:00 a 22:00,"{'id': 3496, 'name': 'Sanborns', 'logo': 'https://resources.claroshop.com/medios-plazavip/mkt/5c3cd792844b8_sanbornssjpeg.jpg', 'status': True}"
1093,1093,PABELLÓN BOSQUES,No. 1813,Prol. Bosques Reforma,05100,Lomas de Vista Hermosa,Cuajimalpa de Morelos,CDMX,"{'lada': '--', 'number': '5552593524'}",19.382203,-99.267703,True,De Lunes a Domingo de 08:00 a 22:00,"{'id': 3496, 'name': 'Sanborns', 'logo': 'https://resources.claroshop.com/medios-plazavip/mkt/5c3cd792844b8_sanbornssjpeg.jpg', 'status': True}"
1094,1094,TEZONTLE,No. 1540,Avenida Río Churubusco,08900,INFONAVIT Iztacalco,Iztacalco,CDMX,"{'lada': '--', 'number': '5556548805'}",19.385623,-99.101294,True,De Lunes a Domingo de 08:00 a 22:00,"{'id': 3496, 'name': 'Sanborns', 'logo': 'https://resources.claroshop.com/medios-plazavip/mkt/5c3cd792844b8_sanbornssjpeg.jpg', 'status': True}"
1095,1095,PLAZA GALERÍAS,No. 193,Av. Melchor Ocampo,11300,Verónica Anzúres,Miguel Hidalgo,CDMX,"{'lada': '--', 'number': '5552601623'}",19.437197,-99.171688,True,De Lunes a Domingo de 08:00 a 22:00,"{'id': 3496, 'name': 'Sanborns', 'logo': 'https://resources.claroshop.com/medios-plazavip/mkt/5c3cd792844b8_sanbornssjpeg.jpg', 'status': True}"
1098,1098,VILLAHERMOSA OLMECA,No.1310,Av. Ruiz Cortinez,86035,Los Ríos,Villahermosa,TABASCO,"{'lada': '--', 'number': '9933165710'}",17.995573,-92.942943,True,De Lunes a Domingo de 08:00 a 22:00,"{'id': 3496, 'name': 'Sanborns', 'logo': 'https://resources.claroshop.com/medios-plazavip/mkt/5c3cd792844b8_sanbornssjpeg.jpg', 'status': True}"
1101,1101,CUERNAVACA CASA DE PIEDRA,No. 629,Av. Plan de Ayala,62350,Lomas del Mirador,Cuernavaca,MORELOS,"{'lada': '--', 'number': '7773164180'}",18.923951,-99.215802,True,De Lunes a Domingo de 08:00 a 22:00,"{'id': 3496, 'name': 'Sanborns', 'logo': 'https://resources.claroshop.com/medios-plazavip/mkt/5c3cd792844b8_sanbornssjpeg.jpg', 'status': True}"
1102,1102,CAMARONES,No. 108,Calz. Camarones,02870,San Salvador Xochimanca,Azcapotzalco,CDMX,"{'lada': '--', 'number': '5553961355'}",19.460372,-99.170658,True,De Lunes a Domingo de 08:00 a 22:00,"{'id': 3496, 'name': 'Sanborns', 'logo': 'https://resources.claroshop.com/medios-plazavip/mkt/5c3cd792844b8_sanbornssjpeg.jpg', 'status': True}"
1103,1103,CENTRO HISTÓRICO,No. 2,Calle de Tacuba,06010,Centro,Cuauhtémoc,CDMX,"{'lada': '--', 'number': '5555211558'}",19.436739,-99.140139,True,De Lunes a Domingo de 08:00 a 22:00,"{'id': 3496, 'name': 'Sanborns', 'logo': 'https://resources.claroshop.com/medios-plazavip/mkt/5c3cd792844b8_sanbornssjpeg.jpg', 'status': True}"
1104,1104,TAXQUEÑA,No. 1030,Av. Miguel Ángel de Quevedo,04040,Parque San Andrés,Coyoacán,CDMX,"{'lada': '--', 'number': '5555441154'}",19.343198,-99.149189,True,De Lunes a Domingo de 08:00 a 22:00,"{'id': 3496, 'name': 'Sanborns', 'logo': 'https://resources.claroshop.com/medios-plazavip/mkt/5c3cd792844b8_sanbornssjpeg.jpg', 'status': True}"
1105,1105,ALTAVISTA,No. 52,Av. Desierto de los Leones,01060,San Ángel,Álvaro Obregón,CDMX,"{'lada': '--', 'number': '5555507735'}",19.348858,-99.190079,True,De Lunes a Domingo de 08:00 a 22:00,"{'id': 3496, 'name': 'Sanborns', 'logo': 'https://resources.claroshop.com/medios-plazavip/mkt/5c3cd792844b8_sanbornssjpeg.jpg', 'status': True}"
1107,1107,QUERÉTARO LOS ARQUITOS,No. 172,Av. Constituyentes Oriente,76048,Loma Bonita,Querétaro,QUERETARO,"{'lada': '--', 'number': '4422236516'}",20.587596,-100.369596,True,De Lunes a Domingo de 08:00 a 22:00,"{'id': 3496, 'name': 'Sanborns', 'logo': 'https://resources.claroshop.com/medios-plazavip/mkt/5c3cd792844b8_sanbornssjpeg.jpg', 'status': True}"
1108,1108,CHIHUAHUA,3300-E,Calle Indiana,31214,Campestre Lomas,Chihuahua,CHIHUAHUA,"{'lada': '--', 'number': '6144157835'}",28.639137,-106.099191,True,De Lunes a Domingo de 08:00 a 22:00,"{'id': 3496, 'name': 'Sanborns', 'logo': 'https://resources.claroshop.com/medios-plazavip/mkt/5c3cd792844b8_sanbornssjpeg.jpg', 'status': True}"
1109,1109,GUADALAJARA GRAN PLAZA,3959 R-2-7,Gran Plaza Avenida Ignacio Luis Vallarta,45049,Don Bosco Vallarta,Guadalajara,JALISCO,"{'lada': '--', 'number': '3331223066'}",20.673306,-103.404089,True,De Lunes a Domingo de 08:00 a 22:00,"{'id': 3496, 'name': 'Sanborns', 'logo': 'https://resources.claroshop.com/medios-plazavip/mkt/5c3cd792844b8_sanbornssjpeg.jpg', 'status': True}"
1110,1110,VERACRUZ CALINDA,No. 1069,Av. Independencia,91700,Centro,Veracruz,VERACRUZ,"{'lada': '--', 'number': '2999310088'}",19.2007,-96.1393091,True,De Lunes a Domingo de 08:00 a 22:00,"{'id': 3496, 'name': 'Sanborns', 'logo': 'https://resources.claroshop.com/medios-plazavip/mkt/5c3cd792844b8_sanbornssjpeg.jpg', 'status': True}"
1113,1113,PUEBLA ANGELÓPOLIS,2510,Blvrd del Niño Poblano,72430,Atlixcáyotl,Puebla,PUEBLA,"{'lada': '--', 'number': '2222250330'}",19.031057,-98.232524,True,De Lunes a Domingo de 08:00 a 22:00,"{'id': 3496, 'name': 'Sanborns', 'logo': 'https://resources.claroshop.com/medios-plazavip/mkt/5c3cd792844b8_sanbornssjpeg.jpg', 'status': True}"
1114,1114,AGUASCALIENTES FRANCIA,No. 111,Av. Francisco I. Madero,20000,Centro,Aguascalientes,AGUASCALIENTES,"{'lada': '--', 'number': '4499158774'}",21.88111,-102.295501,True,De Lunes a Domingo de 08:00 a 22:00,"{'id': 3496, 'name': 'Sanborns', 'logo': 'https://resources.claroshop.com/medios-plazavip/mkt/5c3cd792844b8_sanbornssjpeg.jpg', 'status': True}"
1116,1116,PLAZA INSURGENTES,214 - 101,San Luis Potosí,06700,Roma Norte,Cuauhtémoc,CDMX,"{'lada': '--', 'number': '5555840724'}",19.412445,-99.165811,True,De Lunes a Domingo de 08:00 a 22:00,"{'id': 3496, 'name': 'Sanborns', 'logo': 'https://resources.claroshop.com/medios-plazavip/mkt/5c3cd792844b8_sanbornssjpeg.jpg', 'status': True}"
1117,1117,PABELLÓN POLANCO,No. 980,Avenida Ejército Nacional,11510,Polanco I Sección,Miguel Hidalgo,CDMX,"{'lada': '--', 'number': '5555570487'}",19.437623,-99.206758,False,Cerrada Permanentemente,"{'id': 3496, 'name': 'Sanborns', 'logo': 'https://resources.claroshop.com/medios-plazavip/mkt/5c3cd792844b8_sanbornssjpeg.jpg', 'status': True}"
1118,1118,CANCÚN,No. 260,Av. Tulum Sur,77500,"Supermanzana, 7",Cancún,QUINTANA ROO,"{'lada': '--', 'number': '9988875893'}",21.147796,-86.823642,True,De Lunes a Domingo de 08:00 a 22:00,"{'id': 3496, 'name': 'Sanborns', 'logo': 'https://resources.claroshop.com/medios-plazavip/mkt/5c3cd792844b8_sanbornssjpeg.jpg', 'status': True}"
1119,1119,METEPEC,No. 126,Blvrd Toluca Metepec,52140,Coaxustenco,Metepec,ESTADO DE MÉXICO,"{'lada': '--', 'number': '7222325030'}",19.259665,-99.620273,True,De Lunes a Domingo de 08:00 a 22:00,"{'id': 3496, 'name': 'Sanborns', 'logo': 'https://resources.claroshop.com/medios-plazavip/mkt/5c3cd792844b8_sanbornssjpeg.jpg', 'status': True}"
1121,1121,VILLA DE CORTÉS,No. 744,Calzada de Tlalpan,03510,Moderna,Benito Juárez,CDMX,"{'lada': '--', 'number': '5555797229'}",19.39189,-99.137956,True,De Lunes a Domingo de 08:00 a 22:00,"{'id': 3496, 'name': 'Sanborns', 'logo': 'https://resources.claroshop.com/medios-plazavip/mkt/5c3cd792844b8_sanbornssjpeg.jpg', 'status': True}"
1122,1122,LAS ÁGUILAS,No. 1350,Calz. de Las Águilas,01730,Puente Colorado,Álvaro Obregón,CDMX,"{'lada': '--', 'number': '5556350659'}",19.347578,-99.232059,True,De Lunes a Domingo de 08:00 a 22:00,"{'id': 3496, 'name': 'Sanborns', 'logo': 'https://resources.claroshop.com/medios-plazavip/mkt/5c3cd792844b8_sanbornssjpeg.jpg', 'status': True}"
1124,1124,BARRANCA DEL MUERTO,No. 479,Av. Barranca del Muerto,01600,Merced Gómez,Álvaro Obregón,CDMX,"{'lada': '--', 'number': '5556602010'}",19.364214,-99.191939,True,De Lunes a Domingo de 08:00 a 22:00,"{'id': 3496, 'name': 'Sanborns', 'logo': 'https://resources.claroshop.com/medios-plazavip/mkt/5c3cd792844b8_sanbornssjpeg.jpg', 'status': True}"
1128,1128,BUENAVISTA FORUM,No. 259,Av. Eje 1 Norte Mosqueta,06350,Buenavista,Cuauhtémoc,CDMX,"{'lada': '--', 'number': '5555472547'}",19.4502,-99.151775,True,De Lunes a Domingo de 08:00 a 22:00,"{'id': 3496, 'name': 'Sanborns', 'logo': 'https://resources.claroshop.com/medios-plazavip/mkt/5c3cd792844b8_sanbornssjpeg.jpg', 'status': True}"
1129,1129,CELAYA,809 Poniente,Boulevard Adolfo López Mateos,38000,Centro,Celaya,GUANAJUATO,"{'lada': '--', 'number': '4616090600'}",20.520314,-100.822311,True,De Lunes a Domingo de 08:00 a 22:00,"{'id': 3496, 'name': 'Sanborns', 'logo': 'https://resources.claroshop.com/medios-plazavip/mkt/5c3cd792844b8_sanbornssjpeg.jpg', 'status': True}"
1130,1130,TACUBAYA,No. 106,Av. José Vasconcelos,11850,San Miguel Chapultepec,Miguel Hidalgo,CDMX,"{'lada': '--', 'number': '5526142287'}",19.410035,-99.183901,True,De Lunes a Domingo de 08:00 a 22:00,"{'id': 3496, 'name': 'Sanborns', 'logo': 'https://resources.claroshop.com/medios-plazavip/mkt/5c3cd792844b8_sanbornssjpeg.jpg', 'status': True}"
1131,1131,PLAZA CARSO,No. 245,Lago Zúrich,11529,Ampliación Granada,Miguel Hidalgo,CDMX,"{'lada': '--', 'number': '5549760050'}",19.441603,-99.204422,True,De Lunes a Domingo de 08:00 a 22:00,"{'id': 3496, 'name': 'Sanborns', 'logo': 'https://resources.claroshop.com/medios-plazavip/mkt/5c3cd792844b8_sanbornssjpeg.jpg', 'status': True}"
1132,1132,TAMPICO,No. 5107,Av. Miguel Hidalgo,89330,Flamboyanes,Tampico,TAMAULIPAS,"{'lada': '--', 'number': '8332245559'}",22.272604,-97.873312,True,De Lunes a Domingo de 08:00 a 22:00,"{'id': 3496, 'name': 'Sanborns', 'logo': 'https://resources.claroshop.com/medios-plazavip/mkt/5c3cd792844b8_sanbornssjpeg.jpg', 'status': True}"
1133,1133,CHIHUAHUA PLAZA DEL SOL,No. 3501,Periférico de la Juventud,31250,Las Haciendas ,Chihuahua,CHIHUAHUA,"{'lada': '--', 'number': '6144301102'}",28.623372,-106.115284,True,De Lunes a Domingo de 08:00 a 22:00,"{'id': 3496, 'name': 'Sanborns', 'logo': 'https://resources.claroshop.com/medios-plazavip/mkt/5c3cd792844b8_sanbornssjpeg.jpg', 'status': True}"
1134,1134,ZACATECAS,No. 212,Av. Hidalgo,98000,Centro Zacatecas,Zacatecas,ZACATECAS,"{'lada': '--', 'number': '4929221298'}",22.773183,-102.573894,True,De Lunes a Domingo de 08:00 a 22:00,"{'id': 3496, 'name': 'Sanborns', 'logo': 'https://resources.claroshop.com/medios-plazavip/mkt/5c3cd792844b8_sanbornssjpeg.jpg', 'status': True}"
1135,1135,PABELLÓN CUAUHTÉMOC,No. 287,Avenida Cuauhtémoc,06760,Roma Norte,Cuauhtémoc,CDMX,"{'lada': '--', 'number': '5555745729'}",19.411251,-99.155428,True,De Lunes a Domingo de 08:00 a 22:00,"{'id': 3496, 'name': 'Sanborns', 'logo': 'https://resources.claroshop.com/medios-plazavip/mkt/5c3cd792844b8_sanbornssjpeg.jpg', 'status': True}"
1136,1136,ZARAGOZA,No. 17,Calle 5,08100,Agrícola Pantitlán,Iztacalco,CDMX,"{'lada': '--', 'number': '5557005635'}",19.400761,-99.061706,True,De Lunes a Domingo de 08:00 a 22:00,"{'id': 3496, 'name': 'Sanborns', 'logo': 'https://resources.claroshop.com/medios-plazavip/mkt/5c3cd792844b8_sanbornssjpeg.jpg', 'status': True}"
1137,1137,TORREON LAGUNA,No. 6000,Periférico Raúl López Sánchez,27018,Residencial El Fresno,Torreón,COAHUILA,"{'lada': '--', 'number': '8717507941'}",25.582052,-103.404993,True,De Lunes a Domingo de 08:00 a 22:00,"{'id': 3496, 'name': 'Sanborns', 'logo': 'https://resources.claroshop.com/medios-plazavip/mkt/5c3cd792844b8_sanbornssjpeg.jpg', 'status': True}"
1138,1138,MERIDA GRAN PLAZA,No. 460,Calle 50,97115,Montes de Ame,Mérida,YUCATAN,"{'lada': '--', 'number': '9999418214'}",21.030428,-89.625828,True,De Lunes a Domingo de 08:00 a 22:00,"{'id': 3496, 'name': 'Sanborns', 'logo': 'https://resources.claroshop.com/medios-plazavip/mkt/5c3cd792844b8_sanbornssjpeg.jpg', 'status': True}"
1140,1140,QUERÉTARO CENTRO COMERCIAL,No. 99,Av. 5 de Febrero,76130,Los Virreyes,Querétaro,QUERETARO,"{'lada': '--', 'number': '4422429246'}",20.577396,-100.405788,True,De Lunes a Domingo de 08:00 a 22:00,"{'id': 3496, 'name': 'Sanborns', 'logo': 'https://resources.claroshop.com/medios-plazavip/mkt/5c3cd792844b8_sanbornssjpeg.jpg', 'status': True}"
1143,1143,MORELIA PORTAL GALEANA,No. 171,Calle Portal Galeana,58000,Centro,Morelia,MICHOACAN,"{'lada': '--', 'number': '4433178472'}",19.703085,-101.193046,True,De Lunes a Domingo de 08:00 a 22:00,"{'id': 3496, 'name': 'Sanborns', 'logo': 'https://resources.claroshop.com/medios-plazavip/mkt/5c3cd792844b8_sanbornssjpeg.jpg', 'status': True}"
1145,1145,CULIACÁN,No. 1676,Blvd. Jose Diego Valadez,80000,Desarrollo Urbano Tres Ríos,Culiacán,SINALOA,"{'lada': '--', 'number': '6677136601'}",24.813942,-107.400947,True,Lunes a Domingo de 08:00 a 23:00 horas,"{'id': 3496, 'name': 'Sanborns', 'logo': 'https://resources.claroshop.com/medios-plazavip/mkt/5c3cd792844b8_sanbornssjpeg.jpg', 'status': True}"
1148,1148,TUXTLA,No. 1861,Plaza Boulevard Belisario Domínguez,29020,Bugambilias,Tuxtla,CHIAPAS,"{'lada': '--', 'number': '9616152825'}",16.755068,-93.148814,True,De Lunes a Domingo de 08:00 a 22:00,"{'id': 3496, 'name': 'Sanborns', 'logo': 'https://resources.claroshop.com/medios-plazavip/mkt/5c3cd792844b8_sanbornssjpeg.jpg', 'status': True}"
1150,1150,TEXCOCO,413,Av. Juarez Norte Local-1,56100,Texcoco de Mora Centro,Texcoco,ESTADO DE MÉXICO,"{'lada': '--', 'number': '5959313807'}",19.517755,-98.882053,True,De Lunes a Domingo de 08:00 a 22:00,"{'id': 3496, 'name': 'Sanborns', 'logo': 'https://resources.claroshop.com/medios-plazavip/mkt/5c3cd792844b8_sanbornssjpeg.jpg', 'status': True}"
1155,1155,CIUDAD JUAREZ MISIONES,No. 8681,Boulevard Teófilo Borunda,32618,Partido Iglesias,Ciudad Juárez,CHIHUAHUA,"{'lada': '55', 'number': '6566482181'}",31.686034,-106.408749,True,De Lunes a Domingo de 08:00 a 22:00,"{'id': 3496, 'name': 'Sanborns', 'logo': 'https://resources.claroshop.com/medios-plazavip/mkt/5c3cd792844b8_sanbornssjpeg.jpg', 'status': True}"
1156,1156,GUADALAJARA GALERÍAS,150-C,Avenida Rafael Sanzio,45020,Camichines Vallarta,Guadalajara,JALISCO,"{'lada': '--', 'number': '3336290436'}",20.676965,-103.431491,True,De Lunes a Domingo de 08:00 a 22:00,"{'id': 3496, 'name': 'Sanborns', 'logo': 'https://resources.claroshop.com/medios-plazavip/mkt/5c3cd792844b8_sanbornssjpeg.jpg', 'status': True}"
1161,1161,ISABEL LA CATÓLICA,No. 51,Isabel la Católica,06010,Centro,Cuauhtémoc,CDMX,"{'lada': '--', 'number': '5555187942'}",19.430999,-99.136838,True,De Lunes a Domingo de 08:00 a 22:00,"{'id': 3496, 'name': 'Sanborns', 'logo': 'https://resources.claroshop.com/medios-plazavip/mkt/5c3cd792844b8_sanbornssjpeg.jpg', 'status': True}"
1162,1162,SAN MARCOS,s/n,Av. Chalma R-01 esq. Autopista Méx-Qro,54720,Jardines de la Hacienda Sur,Cuautitlán Izcalli,ESTADO DE MÉXICO,"{'lada': '--', 'number': '5524720037'}",19.670871,-99.201495,True,De Lunes a Domingo de 08:00 a 22:00,"{'id': 3496, 'name': 'Sanborns', 'logo': 'https://resources.claroshop.com/medios-plazavip/mkt/5c3cd792844b8_sanbornssjpeg.jpg', 'status': True}"
1163,1163,CUERNAVACA GALERÍAS,Loc. 103,Km 73 Aut. Méx-Acapulco,62388,Tulipanes,Cuernavaca,MORELOS,"{'lada': '--', 'number': '7773163019'}",18.936148,-99.193283,True,De Lunes a Domingo de 08:00 a 22:00,"{'id': 3496, 'name': 'Sanborns', 'logo': 'https://resources.claroshop.com/medios-plazavip/mkt/5c3cd792844b8_sanbornssjpeg.jpg', 'status': True}"
1164,1164,SALTILLO,No. 686,Perif. Luis Echeverría,25280,Republica Norte,Saltillo,COAHUILA,"{'lada': '--', 'number': '8444166697'}",25.444497,-100.984422,True,De Lunes a Domingo de 08:00 a 22:00,"{'id': 3496, 'name': 'Sanborns', 'logo': 'https://resources.claroshop.com/medios-plazavip/mkt/5c3cd792844b8_sanbornssjpeg.jpg', 'status': True}"
1166,1166,ECATEPEC,s/n,Av. Central s/n Fraccionamiento Las Américas,55076,Las Américas,Ecatepec de Morelos,ESTADO DE MÉXICO,"{'lada': '--', 'number': '5524864019'}",19.582691,-99.023599,True,De Lunes a Domingo de 08:00 a 22:00,"{'id': 3496, 'name': 'Sanborns', 'logo': 'https://resources.claroshop.com/medios-plazavip/mkt/5c3cd792844b8_sanbornssjpeg.jpg', 'status': True}"
1168,1168,CIUDAD DEL CARMEN,No. 101,Avenida Isla de Tris,24199,Aeropuerto,Ciudad del Cármen,CAMPECHE,"{'lada': '--', 'number': '9381110312'}",18.649656,-91.805071,True,De Lunes a Domingo de 08:00 a 22:00,"{'id': 3496, 'name': 'Sanborns', 'logo': 'https://resources.claroshop.com/medios-plazavip/mkt/5c3cd792844b8_sanbornssjpeg.jpg', 'status': True}"
1169,1169,PARQUE DELTA,No. 462,Avenida Cuauhtémoc,03000,Piedad Narvarte,Benito Juárez,CDMX,"{'lada': '--', 'number': '5554402367'}",19.402527,-99.154375,True,De Lunes a Domingo de 08:00 a 22:00,"{'id': 3496, 'name': 'Sanborns', 'logo': 'https://resources.claroshop.com/medios-plazavip/mkt/5c3cd792844b8_sanbornssjpeg.jpg', 'status': True}"
1170,1170,XALAPA,S/N,Carretera Federal Xalapa Km 2 ancla 4,91193,Pastoresca,Xalapa,VERACRUZ,"{'lada': '--', 'number': '2288139890'}",19.513053,-96.877417,True,De Lunes a Domingo de 08:00 a 22:00,"{'id': 3496, 'name': 'Sanborns', 'logo': 'https://resources.claroshop.com/medios-plazavip/mkt/5c3cd792844b8_sanbornssjpeg.jpg', 'status': True}"
1171,1171,COATZACOALCOS,Km. 8,"Av. Universidad Veracruzana, Minatitlan",96536,El Tesoro,Coatzacoalcos,VERACRUZ,"{'lada': '--', 'number': '9212109089'}",18.141232,-94.487753,True,De Lunes a Domingo de 08:00 a 22:00,"{'id': 3496, 'name': 'Sanborns', 'logo': 'https://resources.claroshop.com/medios-plazavip/mkt/5c3cd792844b8_sanbornssjpeg.jpg', 'status': True}"
1172,1172,PUEBLA LAS ÁNIMAS,No. 3515,"Calle 39 Poniente , Ancla 1",72400,Las Ánimas,Puebla,PUEBLA,"{'lada': '--', 'number': '2221697024'}",19.043274,-98.234818,True,De Lunes a Domingo de 08:00 a 22:00,"{'id': 3496, 'name': 'Sanborns', 'logo': 'https://resources.claroshop.com/medios-plazavip/mkt/5c3cd792844b8_sanbornssjpeg.jpg', 'status': True}"
1173,1173,METRÓPOLI,No. 229,Avenida Patriotismo,03800,San Pedro de los Pinos,Benito Juárez,CDMX,"{'lada': '--', 'number': '5552722839'}",19.395555,-99.181074,True,De Lunes a Domingo de 08:00 a 22:00,"{'id': 3496, 'name': 'Sanborns', 'logo': 'https://resources.claroshop.com/medios-plazavip/mkt/5c3cd792844b8_sanbornssjpeg.jpg', 'status': True}"
1174,1174,REYNOSA,No. 101,Boulevard Hidalgo Sub-ancla 1,88710,Las Fuentes,Reynosa,TAMAULIPAS,"{'lada': '--', 'number': '8999248224'}",26.074322,-98.319231,True,De Lunes a Domingo de 08:00 a 22:00,"{'id': 3496, 'name': 'Sanborns', 'logo': 'https://resources.claroshop.com/medios-plazavip/mkt/5c3cd792844b8_sanbornssjpeg.jpg', 'status': True}"
1175,1175,CANCÚN GRAN PLAZA,18 L.1,Av. Nichupté,77533,Supermanzana 51,Cancún,QUINTANA ROO,"{'lada': '--', 'number': '9988723571'}",21.140162,-86.853976,True,De Lunes a Domingo de 08:00 a 22:00,"{'id': 3496, 'name': 'Sanborns', 'logo': 'https://resources.claroshop.com/medios-plazavip/mkt/5c3cd792844b8_sanbornssjpeg.jpg', 'status': True}"
1176,1176,GRAN SUR,No. 151,Avenida del Imán Locales A2 118 y 119,04700,Pedregal de Carrasco,Coyoacán,CDMX,"{'lada': '--', 'number': '5551712180'}",19.306096,-99.165865,True,De Lunes a Domingo de 08:00 a 22:00,"{'id': 3496, 'name': 'Sanborns', 'logo': 'https://resources.claroshop.com/medios-plazavip/mkt/5c3cd792844b8_sanbornssjpeg.jpg', 'status': True}"
1181,1181,PARQUE LINDAVISTA,No. 280,Calle Colector 13,07760,Magdalena de las Salinas,Gustavo A. Madero,CDMX,"{'lada': '--', 'number': '5551192246'}",19.486687,-99.131644,True,De Lunes a Domingo de 08:00 a 22:00,"{'id': 3496, 'name': 'Sanborns', 'logo': 'https://resources.claroshop.com/medios-plazavip/mkt/5c3cd792844b8_sanbornssjpeg.jpg', 'status': True}"
1184,1184,LOS REYES LA PAZ,s/n,Carr. Federal México-Texcoco Km 17.5,56400,Los Reyes La Paz,Los Reyes Acaquilpan,ESTADO DE MÉXICO,"{'lada': '--', 'number': '5558572610'}",19.35709,-98.988469,True,De Lunes a Domingo de 08:00 a 22:00,"{'id': 3496, 'name': 'Sanborns', 'logo': 'https://resources.claroshop.com/medios-plazavip/mkt/5c3cd792844b8_sanbornssjpeg.jpg', 'status': True}"
1185,1185,MONTERREY CITADEL,No. 410,Av. Rómulo Garza,66477,La Fé,Monterrey,NUEVO LEON,"{'lada': '--', 'number': '8183218073'}",25.725966,-100.215625,False,Cerrada Permanentemente,"{'id': 3496, 'name': 'Sanborns', 'logo': 'https://resources.claroshop.com/medios-plazavip/mkt/5c3cd792844b8_sanbornssjpeg.jpg', 'status': True}"
1186,1186,PACHUCA PLAZA Q,Km 7.7,Boulevard Luis Donaldo Colosio,42186,Colinas de Plata,Pachuca,HIDALGO,"{'lada': '--', 'number': '7717912947'}",20.08142,-98.727764,True,De Lunes a Domingo de 08:00 a 22:00,"{'id': 3496, 'name': 'Sanborns', 'logo': 'https://resources.claroshop.com/medios-plazavip/mkt/5c3cd792844b8_sanbornssjpeg.jpg', 'status': True}"
1187,1187,REFORMA 222,No. 222,"Reforma,  Subancla 03",06600,Juárez,Cuauhtémoc,CDMX,"{'lada': '--', 'number': '5555251677'}",19.428169,-99.161184,True,De Lunes a Domingo de 08:00 a 22:00,"{'id': 3496, 'name': 'Sanborns', 'logo': 'https://resources.claroshop.com/medios-plazavip/mkt/5c3cd792844b8_sanbornssjpeg.jpg', 'status': True}"
1188,1188,MÉRIDA ALTABRISA,Local 31,Calle 7 No. 451 MZ. 591,97130,Altabrisa,Mérida,YUCATAN,"{'lada': '--', 'number': '9991679564'}",21.018661,-89.584158,True,De Lunes a Domingo de 08:00 a 22:00,"{'id': 3496, 'name': 'Sanborns', 'logo': 'https://resources.claroshop.com/medios-plazavip/mkt/5c3cd792844b8_sanbornssjpeg.jpg', 'status': True}"
1190,1190,PARQUE TEZONTE,No. 1512,Avenida Canal de Tezontle,09020,Alfonso Ortíz Tirado,Iztapalapa,CDMX,"{'lada': '--', 'number': '5591290178'}",19.384459,-99.082664,True,De Lunes a Domingo de 08:00 a 22:00,"{'id': 3496, 'name': 'Sanborns', 'logo': 'https://resources.claroshop.com/medios-plazavip/mkt/5c3cd792844b8_sanbornssjpeg.jpg', 'status': True}"
1191,1191,AGUASCALIENTES ALTARIA,No. 849,Boulevard A Zacatecas Norte,20200,Trojes de Alonso,Aguascalientes,AGUASCALIENTES,"{'lada': '--', 'number': '4491530430'}",21.923249,-102.290142,True,De Lunes a Domingo de 08:00 a 22:00,"{'id': 3496, 'name': 'Sanborns', 'logo': 'https://resources.claroshop.com/medios-plazavip/mkt/5c3cd792844b8_sanbornssjpeg.jpg', 'status': True}"
1192,1192,PARADERO CIUDAD AZTECA,No. 50,Av. Central Carlos Hank Gonzalez Mz. 632,55120,Ciudad Azteca,Ecatepec de Morelos,ESTADO DE MÉXICO,"{'lada': '--', 'number': '5557751789'}",19.533364,-99.027252,True,De Lunes a Domingo de 08:00 a 22:00,"{'id': 3496, 'name': 'Sanborns', 'logo': 'https://resources.claroshop.com/medios-plazavip/mkt/5c3cd792844b8_sanbornssjpeg.jpg', 'status': True}"
1196,1196,CUAUTITLÁN LUNA PARC,MZ. C-34,Av. Primero de Mayo,54700,Centro Urbano,Cuautitlán Izcalli,ESTADO DE MÉXICO,"{'lada': '--', 'number': '5558682580'}",19.656745,-99.209998,True,De Lunes a Domingo de 08:00 a 22:00,"{'id': 3496, 'name': 'Sanborns', 'logo': 'https://resources.claroshop.com/medios-plazavip/mkt/5c3cd792844b8_sanbornssjpeg.jpg', 'status': True}"
1199,1199,CIUDAD JARDÍN,No. 3,Av. Bordo de Xochiaca,57205,Ciudad Jardín Bicentenario,Nezahualcóyotl,ESTADO DE MÉXICO,"{'lada': '--', 'number': '5515584012'}",19.424447,-99.022821,True,De Lunes a Domingo de 08:00 a 22:00,"{'id': 3496, 'name': 'Sanborns', 'logo': 'https://resources.claroshop.com/medios-plazavip/mkt/5c3cd792844b8_sanbornssjpeg.jpg', 'status': True}"
1210,1210,WORLD TRADE CENTER,No. 38,"Av. de los Insurgentes Sur 701, Montecito",03810,Nápoles,Benito Juárez,CDMX,"{'lada': '--', 'number': '5556870928'}",19.393899,-99.172832,True,De Lunes a Domingo de 08:00 a 22:00,"{'id': 3496, 'name': 'Sanborns', 'logo': 'https://resources.claroshop.com/medios-plazavip/mkt/5c3cd792844b8_sanbornssjpeg.jpg', 'status': True}"
1211,1211,ORIZABA,No. 1430,Avenida Circunvalación,94330,El Espinal,Orizaba,VERACRUZ,"{'lada': '--', 'number': '2727218740'}",18.862751,-97.096957,True,De Lunes a Domingo de 08:00 a 22:00,"{'id': 3496, 'name': 'Sanborns', 'logo': 'https://resources.claroshop.com/medios-plazavip/mkt/5c3cd792844b8_sanbornssjpeg.jpg', 'status': True}"
1213,1213,CONDES DE XALA,No. 73,Venustiano Carranza,06010,Centro,Cuauhtémoc,CDMX,"{'lada': '--', 'number': '5555181463'}",19.431073,-99.135347,True,De Lunes a Domingo de 08:00 a 22:00,"{'id': 3496, 'name': 'Sanborns', 'logo': 'https://resources.claroshop.com/medios-plazavip/mkt/5c3cd792844b8_sanbornssjpeg.jpg', 'status': True}"
1214,1214,SAN LUIS POTOSÍ EL DORADO,No. 450,Av. Nereo Rodríguez Barragan,78200,Del Valle,San Luis Potosí,SAN LUIS POTOSI,"{'lada': '--', 'number': '4448330766'}",22.155993,-101.00407,True,De Lunes a Domingo de 08:00 a 22:00,"{'id': 3496, 'name': 'Sanborns', 'logo': 'https://resources.claroshop.com/medios-plazavip/mkt/5c3cd792844b8_sanbornssjpeg.jpg', 'status': True}"
1215,1215,MORELIA PASEO ALTOZANO,No. 1000,Avenida Montaña Monarca Norte,58350,Desarrollo Montaña Monarca,Morelia,MICHOACAN,"{'lada': '--', 'number': '4432040815'}",19.67403,-101.162397,True,De Lunes a Domingo de 08:00 a 22:00,"{'id': 3496, 'name': 'Sanborns', 'logo': 'https://resources.claroshop.com/medios-plazavip/mkt/5c3cd792844b8_sanbornssjpeg.jpg', 'status': True}"
1217,1217,PLAZA SAN LUIS POTOSÍ,No. 700,Blvd. Antonio Rocha Cordero,78215,Lomas del Tecnológico,San Luis Potosí,SAN LUIS POTOSI,"{'lada': '--', 'number': '4441230205'}",22.127719,-101.030458,True,De Lunes a Domingo de 08:00 a 22:00,"{'id': 3496, 'name': 'Sanborns', 'logo': 'https://resources.claroshop.com/medios-plazavip/mkt/5c3cd792844b8_sanbornssjpeg.jpg', 'status': True}"
1218,1218,VILLAHERMOSA ALTABRISA,No. 129,Av. Periférico Carlos Pellicer,86179,Plaza Villahermosa,Villahermosa,TABASCO,"{'lada': '--', 'number': '9932535018'}",17.967457,-92.940959,True,De Lunes a Domingo de 08:00 a 22:00,"{'id': 3496, 'name': 'Sanborns', 'logo': 'https://resources.claroshop.com/medios-plazavip/mkt/5c3cd792844b8_sanbornssjpeg.jpg', 'status': True}"
1222,1222,NUEVO VERACRUZ,-,Carretera México Jalapa-Veracruz KM. 435.5,91697,El Laureal de Buenavista,Veracruz,VERACRUZ,"{'lada': '--', 'number': '2296881681'}",19.173435,-96.189619,True,De Lunes a Domingo de 08:00 a 22:00,"{'id': 3496, 'name': 'Sanborns', 'logo': 'https://resources.claroshop.com/medios-plazavip/mkt/5c3cd792844b8_sanbornssjpeg.jpg', 'status': True}"
1226,1226,VIA VALLEJO,No. 1090,Calzada Vallejo Eje 1 Poniente,02340,Sta Cruz de las Salinas,Azcapotzalco,CDMX,"{'lada': '--', 'number': '5591307009'}",19.488257,-99.152022,True,De Lunes a Domingo de 08:00 a 22:00,"{'id': 3496, 'name': 'Sanborns', 'logo': 'https://resources.claroshop.com/medios-plazavip/mkt/5c3cd792844b8_sanbornssjpeg.jpg', 'status': True}"
1228,1228,PARQUE TOREO,No. 5,Boulevard Manuel Ávila Camacho,53390,Lomas de Sotelo,Naucalpan de Juárez,ESTADO DE MÉXICO,"{'lada': '--', 'number': '5553959783'}",19.454586,-99.218315,True,De Lunes a Domingo de 08:00 a 22:00,"{'id': 3496, 'name': 'Sanborns', 'logo': 'https://resources.claroshop.com/medios-plazavip/mkt/5c3cd792844b8_sanbornssjpeg.jpg', 'status': True}"
1229,1229,BAMER,-,Av. Juárez 52 y 54,06050,Centro,Cuauhtémoc,CDMX,"{'lada': '--', 'number': '5555126451'}",19.434664,-99.144731,True,De Lunes a Domingo de 08:00 a 22:00,"{'id': 3496, 'name': 'Sanborns', 'logo': 'https://resources.claroshop.com/medios-plazavip/mkt/5c3cd792844b8_sanbornssjpeg.jpg', 'status': True}"
1230,1230,MONTERREY NUEVO SUR,No. 2703,"Av. Revolución, Los Angeles",64830,Ladrillera,Monterrey,NUEVO LEON,"{'lada': '--', 'number': '8184865066'}",25.652472,-100.275488,True,De Lunes a Domingo de 08:00 a 22:00,"{'id': 3496, 'name': 'Sanborns', 'logo': 'https://resources.claroshop.com/medios-plazavip/mkt/5c3cd792844b8_sanbornssjpeg.jpg', 'status': True}"
1231,1231,ATIZAPAN,No. 255,Avenida Adolfo Ruiz Cortines,52977,Mexico Nuevo,Atizapán de Zaragoza,ESTADO DE MÉXICO,"{'lada': '--', 'number': '5516689325'}",19.547657,-99.273606,True,De Lunes a Domingo de 08:00 a 22:00,"{'id': 3496, 'name': 'Sanborns', 'logo': 'https://resources.claroshop.com/medios-plazavip/mkt/5c3cd792844b8_sanbornssjpeg.jpg', 'status': True}"
1233,1233,QUERÉTARO LA VICTORIA,No. 40,Av. Constituyentes Oriente,76040,Mercurio,Querétaro,QUERETARO,"{'lada': '--', 'number': '4423251086'}",20.585883,-100.381068,True,De Lunes a Domingo de 08:00 a 22:00,"{'id': 3496, 'name': 'Sanborns', 'logo': 'https://resources.claroshop.com/medios-plazavip/mkt/5c3cd792844b8_sanbornssjpeg.jpg', 'status': True}"
1234,1234,COACALCO COSMOPOL,No. 1,Via López Portillo,55717,Bosques del Valle,Coacalco de Berriozábal,ESTADO DE MÉXICO,"{'lada': '--', 'number': '5521597591'}",19.631699,-99.12623,True,De Lunes a Domingo de 08:00 a 22:00,"{'id': 3496, 'name': 'Sanborns', 'logo': 'https://resources.claroshop.com/medios-plazavip/mkt/5c3cd792844b8_sanbornssjpeg.jpg', 'status': True}"
1235,1235,NUEVO TLALNEPANTLA,No. 280,Av. Sor Juana Ines,54030,San Lorenzo,Tlalnepantla,ESTADO DE MÉXICO,"{'lada': '--', 'number': '5555653289'}",19.538271,-99.206769,True,De Lunes a Domingo de 08:00 a 22:00,"{'id': 3496, 'name': 'Sanborns', 'logo': 'https://resources.claroshop.com/medios-plazavip/mkt/5c3cd792844b8_sanbornssjpeg.jpg', 'status': True}"
1241,1241,CETRAM TOREO,No. 30,Calz. Transmisiones Militares,53489,Fraccionamiento Industrial,Naucalpan de Juárez,ESTADO DE MÉXICO,"{'lada': '--', 'number': '5521243914'}",19.456809,-99.215634,False,Cerrada Permanentemente,"{'id': 3496, 'name': 'Sanborns', 'logo': 'https://resources.claroshop.com/medios-plazavip/mkt/5c3cd792844b8_sanbornssjpeg.jpg', 'status': True}"
1244,1244,GAVILÁN INTERNET,No. 3,Avenida Gavilán,09350,Albarrada,Iztapalapa,CDMX,"{'lada': '--', 'number': '5556860207'}",19.3618869,99.0834222,False,GAVILÁN INTERNET,"{'id': 3496, 'name': 'Sanborns', 'logo': 'https://resources.claroshop.com/medios-plazavip/mkt/5c3cd792844b8_sanbornssjpeg.jpg', 'status': True}"
1247,1247,LAS ANTENAS,No. 3278,Canal de Garay,09910,La Esperanza,Iztapalapa,CDMX,"{'lada': '--', 'number': '5550884326'}",19.313422,-99.074413,True,Lunes a Domingo de 08:00 am a 08:00 pm,"{'id': 3496, 'name': 'Sanborns', 'logo': 'https://resources.claroshop.com/medios-plazavip/mkt/5c3cd792844b8_sanbornssjpeg.jpg', 'status': True}"
1248,1248,CUERNAVACA AVERANDA,N/A,Aut. México Acapulco km 87.5,62374,Villas del Lago,Cuernavaca,MORELOS,"{'lada': '01', 'number': '7772024740'}",18.93461,-99.196892,True,Lunes a Domingo de 08:00 a 23:00 horas,"{'id': 3496, 'name': 'Sanborns', 'logo': 'https://resources.claroshop.com/medios-plazavip/mkt/5c3cd792844b8_sanbornssjpeg.jpg', 'status': True}"
1275,1275,HOME & FASHION,No. 245,Lago Zúrich,11529,Ampliación Granada,Miguel Hidalgo,CDMX,"{'lada': '--', 'number': '5549760050'}",19.441627,-99.203889,True,Lunes a Domingo de 08:00 am a 08:00 pm,"{'id': 3496, 'name': 'Sanborns', 'logo': 'https://resources.claroshop.com/medios-plazavip/mkt/5c3cd792844b8_sanbornssjpeg.jpg', 'status': True}"
1285,1084,León Plaza Mayor,36-a,Avenida de las Torres 2002,37150,Valle Campestre,León,Guanajuato,"{'lada': '--', 'number': '4777731277'}",21.157731,-101.694093,True,Lunes a Domingo de 08:00 am a 08:00 pm,"{'id': 3496, 'name': 'Sanborns', 'logo': 'https://resources.claroshop.com/medios-plazavip/mkt/5c3cd792844b8_sanbornssjpeg.jpg', 'status': True}"
1286,1006,Insurgentes,421,Av Insurgentes,06100,Hipódromo Condesa,Cuauhtémoc,Ciudad de México,"{'lada': '--', 'number': '5591308800'}",19.40827452,-99.16844222,True,D a J de 07:30 a 22:00 - V-S de 07:30 a 23:00,"{'id': 3496, 'name': 'Sanborns', 'logo': 'https://resources.claroshop.com/medios-plazavip/mkt/5c3cd792844b8_sanbornssjpeg.jpg', 'status': True}"
